<?xml version='1.0' encoding='utf-8'?>
<q:quakeml xmlns:q="http://quakeml.org/xmlns/quakeml/1.2" xmlns="http://quakeml.org/xmlns/bed/1.2">
  <eventParameters publicID="smi:local/3a25a130-4416-4825-9290-d4ee1bb68990">
    <event publicID="smi:local/248882">
      <preferredOriginID>smi:local/404384</preferredOriginID>
      <description>
        <text>LR</text>
      </description>
      <creationInfo>
        <agencyID>NIOSH</agencyID>
        <author>DC</author>
        <creationTime>2018-10-10T21:15:19.190404Z</creationTime>
      </creationInfo>
      <origin publicID="smi:local/404383">
        <time>
          <value>2007-08-07T02:05:04.084420Z</value>
        </time>
        <latitude>
          <value>39.4367</value>
        </latitude>
        <longitude>
          <value>-111.2118</value>
        </longitude>
        <depth>
          <value>7443.2</value>
        </depth>
        <quality>
          <standardError>0.313</standardError>
        </quality>
        <arrival publicID="smi:local/656fe4eb-8ccf-43a7-8e3c-03e46edf65d6">
          <pickID>smi:local/21693710</pickID>
          <phase>P</phase>
          <azimuth>296.68</azimuth>
          <distance>0.386</distance>
          <timeResidual>0.635</timeResidual>
          <timeWeight>-1.0</timeWeight>
        </arrival>
        <arrival publicID="smi:local/3e998c1f-78e2-49aa-ba21-60d78fc3a154">
          <pickID>smi:local/21693711</pickID>
          <phase>P</phase>
          <azimuth>176.55</azimuth>
          <distance>0.52</distance>
          <timeResidual>0.297</timeResidual>
          <timeWeight>-1.0</timeWeight>
        </arrival>
        <arrival publicID="smi:local/8e09eaa8-7d5f-4c1a-b0da-e95d5a7e495d">
          <pickID>smi:local/21693712</pickID>
          <phase>P</phase>
          <azimuth>121.25</azimuth>
          <distance>0.625</distance>
          <timeResidual>0.179</timeResidual>
          <timeWeight>-1.0</timeWeight>
        </arrival>
        <arrival publicID="smi:local/b177f83f-fe1c-4a49-a04d-2cd011dd1684">
          <pickID>smi:local/21693713</pickID>
          <phase>P</phase>
          <azimuth>75.3</azimuth>
          <distance>0.769</distance>
          <timeResidual>-0.04</timeResidual>
          <timeWeight>-1.0</timeWeight>
        </arrival>
        <arrival publicID="smi:local/4ca45310-569d-44c2-af8f-c368c39fd3ac">
          <pickID>smi:local/21693714</pickID>
          <phase>P</phase>
          <azimuth>279.59</azimuth>
          <distance>0.8340000000000001</distance>
          <timeResidual>-0.46</timeResidual>
          <timeWeight>-1.0</timeWeight>
        </arrival>
        <arrival publicID="smi:local/15d2ddd0-912d-4aac-8289-17be057db1fe">
          <pickID>smi:local/21693715</pickID>
          <phase>P</phase>
          <azimuth>111.46</azimuth>
          <distance>0.9</distance>
          <timeResidual>-0.071</timeResidual>
          <timeWeight>-1.0</timeWeight>
        </arrival>
        <arrival publicID="smi:local/712de8e6-532c-4ed1-86d8-4cce27711376">
          <pickID>smi:local/21693716</pickID>
          <phase>S</phase>
          <azimuth>176.55</azimuth>
          <distance>0.52</distance>
          <timeResidual>-0.275</timeResidual>
          <timeWeight>-1.0</timeWeight>
        </arrival>
        <arrival publicID="smi:local/02ef8de6-d811-4a7a-8980-9b70aed40499">
          <pickID>smi:local/21693717</pickID>
          <phase>P</phase>
          <azimuth>244.57</azimuth>
          <distance>1.005</distance>
          <timeResidual>-0.6629999999999999</timeResidual>
          <timeWeight>-1.0</timeWeight>
        </arrival>
        <arrival publicID="smi:local/a7c751b1-70b9-4ba6-8689-f9010330c308">
          <pickID>smi:local/21693719</pickID>
          <phase>P</phase>
          <azimuth>158.9</azimuth>
          <distance>1.09</distance>
          <timeResidual>-0.276</timeResidual>
          <timeWeight>-1.0</timeWeight>
        </arrival>
        <arrival publicID="smi:local/f51c6342-8d9b-40d8-9388-5d6ec05d94fa">
          <pickID>smi:local/21693720</pickID>
          <phase>S</phase>
          <azimuth>121.25</azimuth>
          <distance>0.625</distance>
          <timeResidual>0.321</timeResidual>
          <timeWeight>-1.0</timeWeight>
        </arrival>
        <arrival publicID="smi:local/57a003a3-8ceb-4524-9f09-6b15e19c2e91">
          <pickID>smi:local/21693722</pickID>
          <phase>P</phase>
          <azimuth>47.72</azimuth>
          <distance>1.2409999999999999</distance>
          <timeResidual>-0.308</timeResidual>
          <timeWeight>-1.0</timeWeight>
        </arrival>
        <arrival publicID="smi:local/3e1f8c87-99b6-4494-bb1d-ea3323c713c9">
          <pickID>smi:local/21693724</pickID>
          <phase>S</phase>
          <azimuth>75.3</azimuth>
          <distance>0.769</distance>
          <timeResidual>-0.402</timeResidual>
          <timeWeight>-1.0</timeWeight>
        </arrival>
        <arrival publicID="smi:local/e3068918-1f8a-432c-b3de-7802ee2424fc">
          <pickID>smi:local/21693726</pickID>
          <phase>P</phase>
          <azimuth>302.16</azimuth>
          <distance>1.445</distance>
          <timeResidual>-0.256</timeResidual>
          <timeWeight>-1.0</timeWeight>
        </arrival>
        <arrival publicID="smi:local/6483dfcb-2de4-41e7-918d-7f162bc78f27">
          <pickID>smi:local/21693727</pickID>
          <phase>P</phase>
          <azimuth>276.72</azimuth>
          <distance>1.4409999999999998</distance>
          <timeResidual>0.031</timeResidual>
          <timeWeight>-1.0</timeWeight>
        </arrival>
        <arrival publicID="smi:local/fb6496da-b54e-4e75-8c50-2a1ddbe322be">
          <pickID>smi:local/21693728</pickID>
          <phase>P</phase>
          <azimuth>353.3</azimuth>
          <distance>1.46</distance>
          <timeResidual>0.040999999999999995</timeResidual>
          <timeWeight>-1.0</timeWeight>
        </arrival>
        <arrival publicID="smi:local/9051ca73-1858-4c31-af46-14dcbe45d2d5">
          <pickID>smi:local/21693729</pickID>
          <phase>P</phase>
          <azimuth>214.42</azimuth>
          <distance>1.48</distance>
          <timeResidual>-0.158</timeResidual>
          <timeWeight>-1.0</timeWeight>
        </arrival>
        <arrival publicID="smi:local/6a15b05b-8337-4477-a4de-1c4433258bb5">
          <pickID>smi:local/21693730</pickID>
          <phase>P</phase>
          <azimuth>135.28</azimuth>
          <distance>1.4680000000000002</distance>
          <timeResidual>0.204</timeResidual>
          <timeWeight>-1.0</timeWeight>
        </arrival>
        <arrival publicID="smi:local/f49826a0-52af-4fb6-8005-7000003b3cf8">
          <pickID>smi:local/21693731</pickID>
          <phase>Pb</phase>
          <azimuth>10.74</azimuth>
          <distance>1.5330000000000001</distance>
          <timeResidual>-0.001</timeResidual>
          <timeWeight>-1.0</timeWeight>
        </arrival>
        <arrival publicID="smi:local/a3b759b3-f2e8-44fd-9a0d-c922de13ba4a">
          <pickID>smi:local/21693732</pickID>
          <phase>S</phase>
          <azimuth>111.46</azimuth>
          <distance>0.9</distance>
          <timeResidual>-0.672</timeResidual>
          <timeWeight>-1.0</timeWeight>
        </arrival>
        <arrival publicID="smi:local/02d9466c-f8e0-4e3a-b673-3369e79bb305">
          <pickID>smi:local/21693733</pickID>
          <phase>Pb</phase>
          <azimuth>107.06</azimuth>
          <distance>1.585</distance>
          <timeResidual>0.039</timeResidual>
          <timeWeight>-1.0</timeWeight>
        </arrival>
        <arrival publicID="smi:local/dcca8b6a-91ea-4456-9341-82c604c223fa">
          <pickID>smi:local/21693734</pickID>
          <phase>P</phase>
          <azimuth>325.9</azimuth>
          <distance>1.764</distance>
          <timeResidual>-0.518</timeResidual>
          <timeWeight>-1.0</timeWeight>
        </arrival>
        <arrival publicID="smi:local/ff2a984d-cb0d-46b3-9694-4d014ade135a">
          <pickID>smi:local/21693735</pickID>
          <phase>Pb</phase>
          <azimuth>255.0</azimuth>
          <distance>1.662</distance>
          <timeResidual>-0.228</timeResidual>
          <timeWeight>-1.0</timeWeight>
        </arrival>
        <arrival publicID="smi:local/4cfa28c9-2286-457e-a4a9-093b13ff0f75">
          <pickID>smi:local/21693738</pickID>
          <phase>Pb</phase>
          <azimuth>190.06</azimuth>
          <distance>1.7409999999999999</distance>
          <timeResidual>0.204</timeResidual>
          <timeWeight>-1.0</timeWeight>
        </arrival>
        <arrival publicID="smi:local/90d38428-f847-428b-8234-945d25188334">
          <pickID>smi:local/21693739</pickID>
          <phase>S</phase>
          <azimuth>244.57</azimuth>
          <distance>1.005</distance>
          <timeResidual>-0.20199999999999999</timeResidual>
          <timeWeight>-1.0</timeWeight>
        </arrival>
        <arrival publicID="smi:local/fd4aa54f-b15e-479a-b4e0-e2fa0930741c">
          <pickID>smi:local/21693740</pickID>
          <phase>P</phase>
          <azimuth>36.86</azimuth>
          <distance>1.9369999999999998</distance>
          <timeResidual>0.359</timeResidual>
          <timeWeight>-1.0</timeWeight>
        </arrival>
        <arrival publicID="smi:local/6a96e87d-a6d5-4f7e-abec-32e196c5e8f4">
          <pickID>smi:local/21693741</pickID>
          <phase>Pb</phase>
          <azimuth>169.78</azimuth>
          <distance>1.83</distance>
          <timeResidual>0.165</timeResidual>
          <timeWeight>-1.0</timeWeight>
        </arrival>
        <arrival publicID="smi:local/9393b7e8-27de-4606-9450-7b5ec21e7d50">
          <pickID>smi:local/21693743</pickID>
          <phase>P</phase>
          <azimuth>313.77</azimuth>
          <distance>2.069</distance>
          <timeResidual>-0.268</timeResidual>
          <timeWeight>-1.0</timeWeight>
        </arrival>
        <arrival publicID="smi:local/10ae985f-6c06-40d1-b68a-617951eeda72">
          <pickID>smi:local/21693744</pickID>
          <phase>Pb</phase>
          <azimuth>126.39</azimuth>
          <distance>1.903</distance>
          <timeResidual>0.381</timeResidual>
          <timeWeight>-1.0</timeWeight>
        </arrival>
        <arrival publicID="smi:local/9e4aa52e-787c-48b4-8fce-b6be31e32bd2">
          <pickID>smi:local/21693745</pickID>
          <phase>S</phase>
          <azimuth>158.9</azimuth>
          <distance>1.09</distance>
          <timeResidual>-0.324</timeResidual>
          <timeWeight>-1.0</timeWeight>
        </arrival>
        <arrival publicID="smi:local/8537cc46-c4c2-4dd8-ac0a-701dee8ababc">
          <pickID>smi:local/21693748</pickID>
          <phase>Pb</phase>
          <azimuth>151.03</azimuth>
          <distance>1.989</distance>
          <timeResidual>0.11800000000000001</timeResidual>
          <timeWeight>-1.0</timeWeight>
        </arrival>
        <arrival publicID="smi:local/1952ba31-1143-4bd8-984c-f590a3f97a7e">
          <pickID>smi:local/21693749</pickID>
          <phase>P</phase>
          <azimuth>335.5</azimuth>
          <distance>2.234</distance>
          <timeResidual>-0.044000000000000004</timeResidual>
          <timeWeight>-1.0</timeWeight>
        </arrival>
        <arrival publicID="smi:local/7cca56a8-90fe-42d4-b668-8b657c9ae54e">
          <pickID>smi:local/21693751</pickID>
          <phase>Pb</phase>
          <azimuth>271.38</azimuth>
          <distance>2.165</distance>
          <timeResidual>0.063</timeResidual>
          <timeWeight>-1.0</timeWeight>
        </arrival>
        <arrival publicID="smi:local/4331c2ef-c57a-4263-8475-6796456c1d8d">
          <pickID>smi:local/21693752</pickID>
          <phase>Pb</phase>
          <azimuth>135.54</azimuth>
          <distance>2.343</distance>
          <timeResidual>0.075</timeResidual>
          <timeWeight>-1.0</timeWeight>
        </arrival>
        <arrival publicID="smi:local/a05ae309-2ba4-4f0b-b292-91cc4d6d11bd">
          <pickID>smi:local/21693754</pickID>
          <phase>P</phase>
          <azimuth>341.26</azimuth>
          <distance>2.717</distance>
          <timeResidual>0.127</timeResidual>
          <timeWeight>-1.0</timeWeight>
        </arrival>
        <arrival publicID="smi:local/63e44b1f-fa02-4019-88eb-1b2e72dd594f">
          <pickID>smi:local/21693755</pickID>
          <phase>Pb</phase>
          <azimuth>172.39</azimuth>
          <distance>2.461</distance>
          <timeResidual>-0.08800000000000001</timeResidual>
          <timeWeight>-1.0</timeWeight>
        </arrival>
        <arrival publicID="smi:local/d64e3f6e-e219-4862-9dc1-6acd095aeff6">
          <pickID>smi:local/21693757</pickID>
          <phase>Pb</phase>
          <azimuth>185.48</azimuth>
          <distance>2.464</distance>
          <timeResidual>0.423</timeResidual>
          <timeWeight>-1.0</timeWeight>
        </arrival>
        <arrival publicID="smi:local/713dd84b-7e8d-403a-b116-4047e849d6da">
          <pickID>smi:local/21693758</pickID>
          <phase>Pb</phase>
          <azimuth>155.05</azimuth>
          <distance>2.529</distance>
          <timeResidual>-0.065</timeResidual>
          <timeWeight>-1.0</timeWeight>
        </arrival>
        <arrival publicID="smi:local/ecabd5ec-0ed2-4ab5-9dc5-3345265808f4">
          <pickID>smi:local/21693759</pickID>
          <phase>Pb</phase>
          <azimuth>240.55</azimuth>
          <distance>2.489</distance>
          <timeResidual>0.5479999999999999</timeResidual>
          <timeWeight>-1.0</timeWeight>
        </arrival>
        <arrival publicID="smi:local/325499fb-e6b8-4ca3-858f-cf84660bc210">
          <pickID>smi:local/21693760</pickID>
          <phase>S</phase>
          <azimuth>276.72</azimuth>
          <distance>1.4409999999999998</distance>
          <timeResidual>-0.537</timeResidual>
          <timeWeight>-1.0</timeWeight>
        </arrival>
        <arrival publicID="smi:local/d4d6c919-2a1b-40fa-9e6d-335ba401ae47">
          <pickID>smi:local/21693761</pickID>
          <phase>S</phase>
          <azimuth>135.28</azimuth>
          <distance>1.4680000000000002</distance>
          <timeResidual>-0.213</timeResidual>
          <timeWeight>-1.0</timeWeight>
        </arrival>
        <arrival publicID="smi:local/24bffc64-9f1e-4012-827d-c832ed37dda8">
          <pickID>smi:local/21693762</pickID>
          <phase>Pb</phase>
          <azimuth>322.52</azimuth>
          <distance>2.628</distance>
          <timeResidual>0.267</timeResidual>
          <timeWeight>-1.0</timeWeight>
        </arrival>
        <arrival publicID="smi:local/81e3b639-cda2-4e76-b72f-b435a583fe7a">
          <pickID>smi:local/21693763</pickID>
          <phase>S</phase>
          <azimuth>214.42</azimuth>
          <distance>1.48</distance>
          <timeResidual>0.255</timeResidual>
          <timeWeight>-1.0</timeWeight>
        </arrival>
        <arrival publicID="smi:local/1095a7ce-e872-486f-84d9-a4778b22c9b4">
          <pickID>smi:local/21693765</pickID>
          <phase>S</phase>
          <azimuth>107.06</azimuth>
          <distance>1.585</distance>
          <timeResidual>0.29600000000000004</timeResidual>
          <timeWeight>-1.0</timeWeight>
        </arrival>
        <arrival publicID="smi:local/7250fc94-c9f1-4a4e-b04e-7a9ed96646c9">
          <pickID>smi:local/21693768</pickID>
          <phase>S</phase>
          <azimuth>231.64</azimuth>
          <distance>1.811</distance>
          <timeResidual>-0.37200000000000005</timeResidual>
          <timeWeight>-1.0</timeWeight>
        </arrival>
        <arrival publicID="smi:local/aafd5c33-6af7-4a5f-868c-d3e656a5afc7">
          <pickID>smi:local/21693769</pickID>
          <phase>Pb</phase>
          <azimuth>196.14</azimuth>
          <distance>3.127</distance>
          <timeResidual>0.03</timeResidual>
          <timeWeight>-1.0</timeWeight>
        </arrival>
        <arrival publicID="smi:local/6a50e262-8c17-40dc-9064-ca2ff938ce81">
          <pickID>smi:local/21693776</pickID>
          <phase>Sb</phase>
          <azimuth>126.39</azimuth>
          <distance>1.903</distance>
          <timeResidual>-0.079</timeResidual>
          <timeWeight>-1.0</timeWeight>
        </arrival>
        <arrival publicID="smi:local/de5a4bc9-5d61-4741-bbfe-7952114209da">
          <pickID>smi:local/21693778</pickID>
          <phase>Sb</phase>
          <azimuth>151.03</azimuth>
          <distance>1.989</distance>
          <timeResidual>0.145</timeResidual>
          <timeWeight>-1.0</timeWeight>
        </arrival>
        <arrival publicID="smi:local/190ed66d-6c58-4d80-8a43-393733973403">
          <pickID>smi:local/21693784</pickID>
          <phase>Sb</phase>
          <azimuth>135.54</azimuth>
          <distance>2.343</distance>
          <timeResidual>0.006</timeResidual>
          <timeWeight>-1.0</timeWeight>
        </arrival>
        <arrival publicID="smi:local/602c54f0-3d40-408e-ae1f-6ad87bedf7db">
          <pickID>smi:local/21693787</pickID>
          <phase>Sb</phase>
          <azimuth>185.48</azimuth>
          <distance>2.464</distance>
          <timeResidual>-0.18100000000000002</timeResidual>
          <timeWeight>-1.0</timeWeight>
        </arrival>
        <arrival publicID="smi:local/8d995dfc-8a4f-410a-b391-c65405b9d611">
          <pickID>smi:local/21693788</pickID>
          <phase>Sb</phase>
          <azimuth>172.39</azimuth>
          <distance>2.461</distance>
          <timeResidual>0.354</timeResidual>
          <timeWeight>-1.0</timeWeight>
        </arrival>
        <arrival publicID="smi:local/db61e6f6-34f7-4b28-b979-6fcf324a83c5">
          <pickID>smi:local/21693789</pickID>
          <phase>Sb</phase>
          <azimuth>155.05</azimuth>
          <distance>2.529</distance>
          <timeResidual>-0.5539999999999999</timeResidual>
          <timeWeight>-1.0</timeWeight>
        </arrival>
        <arrival publicID="smi:local/93eed913-63a0-46c2-9090-9d2be52a0668">
          <pickID>smi:local/21693795</pickID>
          <phase>Sb</phase>
          <azimuth>196.14</azimuth>
          <distance>3.127</distance>
          <timeResidual>-0.46</timeResidual>
          <timeWeight>-1.0</timeWeight>
        </arrival>
      </origin>
      <origin publicID="smi:local/404384">
        <time>
          <value>2007-08-07T02:05:04.490000Z</value>
        </time>
        <latitude>
          <value>39.4648</value>
        </latitude>
        <longitude>
          <value>-111.2255</value>
        </longitude>
        <depth>
          <value>1790.0</value>
        </depth>
        <quality>
          <standardError>0.9935</standardError>
        </quality>
        <arrival publicID="smi:local/91e355ab-dbaf-4747-abd0-1486f35c1332">
          <pickID>smi:local/21693710</pickID>
          <phase>Pg</phase>
          <azimuth>293.47</azimuth>
          <distance>0.365</distance>
          <timeResidual>0.94</timeResidual>
          <timeWeight>-1.0</timeWeight>
        </arrival>
        <arrival publicID="smi:local/c2553e0e-b7ed-4eb4-b1f6-bfcf6ae12576">
          <pickID>smi:local/21693711</pickID>
          <phase>Pg</phase>
          <azimuth>175.62</azimuth>
          <distance>0.5489999999999999</distance>
          <timeResidual>-0.375</timeResidual>
          <timeWeight>-1.0</timeWeight>
        </arrival>
        <arrival publicID="smi:local/715d29e3-b9c7-4283-99d0-6f409637a4b4">
          <pickID>smi:local/21693712</pickID>
          <phase>Pg</phase>
          <azimuth>122.87</azimuth>
          <distance>0.648</distance>
          <timeResidual>-0.433</timeResidual>
          <timeWeight>-1.0</timeWeight>
        </arrival>
        <arrival publicID="smi:local/84359103-b979-4084-ab93-aa3fb5c6cc4e">
          <pickID>smi:local/21693713</pickID>
          <phase>Pg</phase>
          <azimuth>77.51</azimuth>
          <distance>0.773</distance>
          <timeResidual>-0.184</timeResidual>
          <timeWeight>-1.0</timeWeight>
        </arrival>
