<?xml version='1.0' encoding='utf-8'?>
<q:quakeml xmlns:q="http://quakeml.org/xmlns/quakeml/1.2" xmlns="http://quakeml.org/xmlns/bed/1.2">
  <eventParameters publicID="smi:local/eb5418f0-6880-49ad-b77d-9a8f59b8e7b9">
    <event publicID="smi:local/248891">
      <preferredOriginID>smi:local/404399</preferredOriginID>
      <origin publicID="smi:local/404398">
        <time>
          <value>2007-08-07T07:13:05.347690Z</value>
        </time>
        <latitude>
          <value>39.4423</value>
        </latitude>
        <longitude>
          <value>-111.1992</value>
        </longitude>
        <depth>
          <value>10613.4</value>
        </depth>
        <quality>
          <standardError>0.3793</standardError>
        </quality>
        <arrival publicID="smi:local/d19335df-364c-4fcf-90ad-c45f66ce5c9b">
          <pickID>smi:local/21694196</pickID>
          <phase>P</phase>
          <azimuth>295.33</azimuth>
          <distance>0.392</distance>
          <timeResidual>0.27</timeResidual>
          <timeWeight>-1.0</timeWeight>
        </arrival>
        <arrival publicID="smi:local/872f45f2-13b9-4420-8ab2-fc31212ad5b2">
          <pickID>smi:local/21694197</pickID>
          <phase>P</phase>
          <azimuth>177.66</azimuth>
          <distance>0.525</distance>
          <timeResidual>0.192</timeResidual>
          <timeWeight>-1.0</timeWeight>
        </arrival>
        <arrival publicID="smi:local/5bc9a598-9c4b-4c7d-87c4-36605cbeddd7">
          <pickID>smi:local/21694198</pickID>
          <phase>P</phase>
          <azimuth>122.16</azimuth>
          <distance>0.619</distance>
          <timeResidual>0.023</timeResidual>
          <timeWeight>-1.0</timeWeight>
        </arrival>
        <arrival publicID="smi:local/06d65f9f-78ac-44a6-b7c4-f38e3eb49473">
          <pickID>smi:local/21694199</pickID>
          <phase>P</phase>
          <azimuth>75.53</azimuth>
          <distance>0.759</distance>
          <timeResidual>-0.136</timeResidual>
          <timeWeight>-1.0</timeWeight>
        </arrival>
        <arrival publicID="smi:local/f8ef1a62-1712-4650-8cb7-efe66dfdce18">
          <pickID>smi:local/21694200</pickID>
          <phase>P</phase>
          <azimuth>343.16</azimuth>
          <distance>0.799</distance>
          <timeResidual>-0.6409999999999999</timeResidual>
          <timeWeight>-1.0</timeWeight>
        </arrival>
        <arrival publicID="smi:local/afc46be4-700d-4f4a-858b-c1ab0a24e679">
          <pickID>smi:local/21694201</pickID>
          <phase>P</phase>
          <azimuth>112.03</azimuth>
          <distance>0.893</distance>
          <timeResidual>-0.01</timeResidual>
          <timeWeight>-1.0</timeWeight>
        </arrival>
        <arrival publicID="smi:local/1cba39db-044a-4ef3-8443-1fd951125e9c">
          <pickID>smi:local/21694202</pickID>
          <phase>S</phase>
          <azimuth>177.66</azimuth>
          <distance>0.525</distance>
          <timeResidual>-0.636</timeResidual>
          <timeWeight>-1.0</timeWeight>
        </arrival>
        <arrival publicID="smi:local/98db5504-cb1c-4147-b6ab-273b52a7e454">
          <pickID>smi:local/21694203</pickID>
          <phase>P</phase>
          <azimuth>244.53</azimuth>
          <distance>1.016</distance>
          <timeResidual>-0.584</timeResidual>
          <timeWeight>-1.0</timeWeight>
        </arrival>
        <arrival publicID="smi:local/88b2b338-fcc4-4258-98ce-07dabe0a72af">
          <pickID>smi:local/21694205</pickID>
          <phase>P</phase>
          <azimuth>159.49</azimuth>
          <distance>1.092</distance>
          <timeResidual>-0.293</timeResidual>
          <timeWeight>-1.0</timeWeight>
        </arrival>
        <arrival publicID="smi:local/bfc7e340-2c00-494e-8bad-b8ea310bb99b">
          <pickID>smi:local/21694206</pickID>
          <phase>S</phase>
          <azimuth>122.16</azimuth>
          <distance>0.619</distance>
          <timeResidual>0.013999999999999999</timeResidual>
          <timeWeight>-1.0</timeWeight>
        </arrival>
        <arrival publicID="smi:local/b53d6067-6ade-4ef2-88a7-af2cf58beec3">
          <pickID>smi:local/21694207</pickID>
          <phase>P</phase>
          <azimuth>47.62</azimuth>
          <distance>1.23</distance>
          <timeResidual>-0.07</timeResidual>
          <timeWeight>-1.0</timeWeight>
        </arrival>
        <arrival publicID="smi:local/3af4f4d2-8188-4d98-b517-82a348c78ac8">
          <pickID>smi:local/21694208</pickID>
          <phase>Pb</phase>
          <azimuth>311.1</azimuth>
          <distance>1.286</distance>
          <timeResidual>0.311</timeResidual>
          <timeWeight>-1.0</timeWeight>
        </arrival>
        <arrival publicID="smi:local/d22516e6-467b-4f40-bd4b-1bbe602b703c">
          <pickID>smi:local/21694209</pickID>
          <phase>S</phase>
          <azimuth>75.53</azimuth>
          <distance>0.759</distance>
          <timeResidual>-0.205</timeResidual>
          <timeWeight>-1.0</timeWeight>
        </arrival>
        <arrival publicID="smi:local/02d08df1-7122-4e02-875d-00c47801f4f1">
          <pickID>smi:local/21694211</pickID>
          <phase>Pb</phase>
          <azimuth>276.47</azimuth>
          <distance>1.45</distance>
          <timeResidual>-0.315</timeResidual>
          <timeWeight>-1.0</timeWeight>
        </arrival>
        <arrival publicID="smi:local/23fe8a07-b7d8-4662-9829-87f884f12769">
          <pickID>smi:local/21694212</pickID>
          <phase>Pb</phase>
          <azimuth>301.78</azimuth>
          <distance>1.4509999999999998</distance>
          <timeResidual>-0.205</timeResidual>
          <timeWeight>-1.0</timeWeight>
        </arrival>
        <arrival publicID="smi:local/e275b409-741b-4fd5-8d44-65af22328438">
          <pickID>smi:local/21694213</pickID>
          <phase>Pb</phase>
          <azimuth>135.71</azimuth>
          <distance>1.465</distance>
          <timeResidual>-0.08199999999999999</timeResidual>
          <timeWeight>-1.0</timeWeight>
        </arrival>
        <arrival publicID="smi:local/398c505f-6036-4e2a-95b2-6187a5ea930f">
          <pickID>smi:local/21694214</pickID>
          <phase>Pb</phase>
          <azimuth>214.62</azimuth>
          <distance>1.4909999999999999</distance>
          <timeResidual>-0.316</timeResidual>
          <timeWeight>-1.0</timeWeight>
        </arrival>
        <arrival publicID="smi:local/1c9c61ee-09c9-420f-9028-cd8984ab8115">
          <pickID>smi:local/21694215</pickID>
          <phase>Pb</phase>
          <azimuth>352.91</azimuth>
          <distance>1.456</distance>
          <timeResidual>0.43</timeResidual>
          <timeWeight>-1.0</timeWeight>
        </arrival>
        <arrival publicID="smi:local/a0e552a8-b505-4702-95b8-0a0b721a8507">
          <pickID>smi:local/21694216</pickID>
          <phase>Pb</phase>
          <azimuth>10.43</azimuth>
          <distance>1.526</distance>
          <timeResidual>-0.376</timeResidual>
          <timeWeight>-1.0</timeWeight>
        </arrival>
        <arrival publicID="smi:local/56277872-1c66-4ddc-a085-f387b9fe5ba6">
          <pickID>smi:local/21694218</pickID>
          <phase>Pb</phase>
          <azimuth>107.37</azimuth>
          <distance>1.578</distance>
          <timeResidual>0.053</timeResidual>
          <timeWeight>-1.0</timeWeight>
        </arrival>
        <arrival publicID="smi:local/5736e1ec-8844-408d-9fde-7feff2abc6da">
          <pickID>smi:local/21694219</pickID>
          <phase>S</phase>
          <azimuth>112.03</azimuth>
          <distance>0.893</distance>
          <timeResidual>-0.159</timeResidual>
          <timeWeight>-1.0</timeWeight>
        </arrival>
        <arrival publicID="smi:local/1ba7930e-54f2-4656-9573-53e7cdefe128">
          <pickID>smi:local/21694220</pickID>
          <phase>P</phase>
          <azimuth>325.54</azimuth>
          <distance>1.765</distance>
          <timeResidual>-0.11800000000000001</timeResidual>
          <timeWeight>-1.0</timeWeight>
        </arrival>
        <arrival publicID="smi:local/71673152-6b9f-4265-831b-67a842418925">
          <pickID>smi:local/21694221</pickID>
          <phase>Pb</phase>
          <azimuth>254.91</azimuth>
          <distance>1.673</distance>
          <timeResidual>-0.255</timeResidual>
          <timeWeight>-1.0</timeWeight>
        </arrival>
        <arrival publicID="smi:local/b37613b0-ae2e-4274-b5e6-9bf89d2bfd14">
          <pickID>smi:local/21694224</pickID>
          <phase>Pb</phase>
          <azimuth>190.35</azimuth>
          <distance>1.7480000000000002</distance>
          <timeResidual>0.298</timeResidual>
          <timeWeight>-1.0</timeWeight>
        </arrival>
        <arrival publicID="smi:local/07ba247c-cbd9-4a14-bd8b-df3227106a35">
          <pickID>smi:local/21694225</pickID>
          <phase>S</phase>
          <azimuth>244.53</azimuth>
          <distance>1.016</distance>
          <timeResidual>-0.64</timeResidual>
          <timeWeight>-1.0</timeWeight>
        </arrival>
        <arrival publicID="smi:local/1a07a303-9243-4c92-a1c9-f5b3b203e088">
          <pickID>smi:local/21694226</pickID>
          <phase>Pb</phase>
          <azimuth>170.11</azimuth>
          <distance>1.834</distance>
          <timeResidual>0.175</timeResidual>
          <timeWeight>-1.0</timeWeight>
        </arrival>
        <arrival publicID="smi:local/9282f1f2-bd34-4795-861b-6e9751f6952d">
          <pickID>smi:local/21694227</pickID>
          <phase>Pb</phase>
          <azimuth>350.2</azimuth>
          <distance>1.901</distance>
          <timeResidual>-0.991</timeResidual>
          <timeWeight>-1.0</timeWeight>
        </arrival>
        <arrival publicID="smi:local/2f5fb291-ac8a-4839-94ce-5b705b349d01">
          <pickID>smi:local/21694229</pickID>
          <phase>P</phase>
          <azimuth>313.48</azimuth>
          <distance>2.072</distance>
          <timeResidual>-0.156</timeResidual>
          <timeWeight>-1.0</timeWeight>
        </arrival>
        <arrival publicID="smi:local/b0a87d54-2069-46d8-8eb8-af66895ed81b">
          <pickID>smi:local/21694230</pickID>
          <phase>Pb</phase>
          <azimuth>36.74</azimuth>
          <distance>1.9269999999999998</distance>
          <timeResidual>-0.223</timeResidual>
          <timeWeight>-1.0</timeWeight>
        </arrival>
        <arrival publicID="smi:local/d0dfe19f-cb0e-4b3d-b066-6b24a5004c7f">
          <pickID>smi:local/21694231</pickID>
          <phase>Pb</phase>
          <azimuth>126.71</azimuth>
          <distance>1.8980000000000001</distance>
          <timeResidual>0.445</timeResidual>
          <timeWeight>-1.0</timeWeight>
        </arrival>
        <arrival publicID="smi:local/07b26d18-50de-4bf0-8725-a8cfd74088b2">
          <pickID>smi:local/21694232</pickID>
          <phase>S</phase>
          <azimuth>159.49</azimuth>
          <distance>1.092</distance>
          <timeResidual>-0.555</timeResidual>
          <timeWeight>-1.0</timeWeight>
        </arrival>
        <arrival publicID="smi:local/c54bf080-05eb-4980-b863-eef3d1515aa4">
          <pickID>smi:local/21694235</pickID>
          <phase>Pb</phase>
          <azimuth>151.36</azimuth>
          <distance>1.989</distance>
          <timeResidual>0.27399999999999997</timeResidual>
          <timeWeight>-1.0</timeWeight>
        </arrival>
        <arrival publicID="smi:local/f6d69cc2-bbad-4cf4-bfef-95bc1f6d90a7">
          <pickID>smi:local/21694237</pickID>
          <phase>P</phase>
          <azimuth>335.23</azimuth>
          <distance>2.233</distance>
          <timeResidual>0.16699999999999998</timeResidual>
          <timeWeight>-1.0</timeWeight>
        </arrival>
        <arrival publicID="smi:local/f68bc091-87cb-48b3-8982-c46fccc5e93d">
          <pickID>smi:local/21694238</pickID>
          <phase>Pb</phase>
          <azimuth>271.23</azimuth>
          <distance>2.175</distance>
          <timeResidual>-0.149</timeResidual>
          <timeWeight>-1.0</timeWeight>
        </arrival>
        <arrival publicID="smi:local/5e947b83-92ea-4f1d-9c8e-55b4f74f7ceb">
          <pickID>smi:local/21694240</pickID>
          <phase>S</phase>
          <azimuth>47.62</azimuth>
          <distance>1.23</distance>
          <timeResidual>-0.099</timeResidual>
          <timeWeight>-1.0</timeWeight>
        </arrival>
        <arrival publicID="smi:local/b4095076-eb3d-401b-9e47-fb3a0e6b3ec2">
          <pickID>smi:local/21694241</pickID>
          <phase>Pb</phase>
          <azimuth>135.81</azimuth>
          <distance>2.34</distance>
          <timeResidual>-0.042</timeResidual>
          <timeWeight>-1.0</timeWeight>
        </arrival>
        <arrival publicID="smi:local/f853fd98-ec57-4ee4-b03d-98be7a99e05a">
          <pickID>smi:local/21694242</pickID>
          <phase>P</phase>
          <azimuth>322.28</azimuth>
          <distance>2.63</distance>
          <timeResidual>0.258</timeResidual>
          <timeWeight>-1.0</timeWeight>
        </arrival>
        <arrival publicID="smi:local/a0ec3d4f-8e87-4eb9-bcb2-e7007c2dd083">
          <pickID>smi:local/21694244</pickID>
          <phase>P</phase>
          <azimuth>341.04</azimuth>
          <distance>2.715</distance>
          <timeResidual>0.47100000000000003</timeResidual>
          <timeWeight>-1.0</timeWeight>
        </arrival>
        <arrival publicID="smi:local/f70fa82a-d052-4afe-ac25-b108cd6f107c">
          <pickID>smi:local/21694245</pickID>
          <phase>Pb</phase>
          <azimuth>172.64</azimuth>
          <distance>2.465</distance>
          <timeResidual>-0.138</timeResidual>
          <timeWeight>-1.0</timeWeight>
        </arrival>
        <arrival publicID="smi:local/e36ab35a-2a77-4aa6-9cdf-bd6ea78eaa03">
          <pickID>smi:local/21694246</pickID>
          <phase>Pb</phase>
          <azimuth>185.7</azimuth>
          <distance>2.47</distance>
          <timeResidual>0.35200000000000004</timeResidual>
          <timeWeight>-1.0</timeWeight>
        </arrival>
        <arrival publicID="smi:local/d9f5dd00-c80e-48d1-bb5a-a7ffe888791c">
          <pickID>smi:local/21694247</pickID>
          <phase>Pb</phase>
          <azimuth>155.31</azimuth>
          <distance>2.53</distance>
          <timeResidual>-0.545</timeResidual>
          <timeWeight>-1.0</timeWeight>
        </arrival>
        <arrival publicID="smi:local/53859b59-474c-46b8-89af-54216bc4ef75">
          <pickID>smi:local/21694249</pickID>
          <phase>Pb</phase>
          <azimuth>240.56</azimuth>
          <distance>2.5</distance>
          <timeResidual>0.46399999999999997</timeResidual>
          <timeWeight>-1.0</timeWeight>
        </arrival>
        <arrival publicID="smi:local/9be5d195-7752-4882-a59a-8d3df81a2b0e">
          <pickID>smi:local/21694250</pickID>
          <phase>S</phase>
          <azimuth>301.78</azimuth>
          <distance>1.4509999999999998</distance>
          <timeResidual>-0.628</timeResidual>
          <timeWeight>-1.0</timeWeight>
        </arrival>
        <arrival publicID="smi:local/ba94d321-4545-4602-95eb-0cd69010f951">
          <pickID>smi:local/21694251</pickID>
          <phase>S</phase>
          <azimuth>135.71</azimuth>
          <distance>1.465</distance>
          <timeResidual>-0.105</timeResidual>
          <timeWeight>-1.0</timeWeight>
        </arrival>
        <arrival publicID="smi:local/9ab3d366-cf07-4d85-8d84-48426d08eaa5">
          <pickID>smi:local/21694252</pickID>
          <phase>S</phase>
          <azimuth>214.62</azimuth>
          <distance>1.4909999999999999</distance>
          <timeResidual>0.035</timeResidual>
          <timeWeight>-1.0</timeWeight>
        </arrival>
        <arrival publicID="smi:local/0bf26e63-2764-4c1a-b880-3d7aab202de6">
          <pickID>smi:local/21694254</pickID>
          <phase>S</phase>
          <azimuth>107.37</azimuth>
          <distance>1.578</distance>
          <timeResidual>-0.087</timeResidual>
          <timeWeight>-1.0</timeWeight>
        </arrival>
        <arrival publicID="smi:local/4f2728f8-8255-410c-bf3c-b42135b4efab">
          <pickID>smi:local/21694255</pickID>
          <phase>S</phase>
          <azimuth>254.91</azimuth>
          <distance>1.673</distance>
          <timeResidual>-1.23</timeResidual>
          <timeWeight>-1.0</timeWeight>
        </arrival>
        <arrival publicID="smi:local/b97eaa97-f71e-429a-8f9c-944f4df679c6">
          <pickID>smi:local/21694263</pickID>
          <phase>Sb</phase>
          <azimuth>126.71</azimuth>
          <distance>1.8980000000000001</distance>
          <timeResidual>0.055</timeResidual>
          <timeWeight>-1.0</timeWeight>
        </arrival>
        <arrival publicID="smi:local/6aa7e6a2-5677-44aa-9032-47af487608cd">
          <pickID>smi:local/21694265</pickID>
          <phase>Sb</phase>
          <azimuth>151.36</azimuth>
          <distance>1.989</distance>
          <timeResidual>0.29100000000000004</timeResidual>
          <timeWeight>-1.0</timeWeight>
        </arrival>
        <arrival publicID="smi:local/c74de4dd-bce3-4a00-b31f-943d27ada882">
          <pickID>smi:local/21694273</pickID>
          <phase>Sb</phase>
          <azimuth>135.81</azimuth>
          <distance>2.34</distance>
          <timeResidual>0.205</timeResidual>
          <timeWeight>-1.0</timeWeight>
        </arrival>
        <arrival publicID="smi:local/42a1da4f-6822-4021-985c-b194fbbcdd9a">
          <pickID>smi:local/21694274</pickID>
          <phase>Sb</phase>
          <azimuth>172.64</azimuth>
          <distance>2.465</distance>
          <timeResidual>-0.165</timeResidual>
          <timeWeight>-1.0</timeWeight>
        </arrival>
        <arrival publicID="smi:local/f7c9c9e6-e781-4e8c-9089-de0a94b52bfe">
          <pickID>smi:local/21694275</pickID>
          <phase>Sb</phase>
          <azimuth>185.7</azimuth>
          <distance>2.47</distance>
          <timeResidual>0.335</timeResidual>
          <timeWeight>-1.0</timeWeight>
        </arrival>
        <arrival publicID="smi:local/1ea3db61-7eac-48a5-9f4e-df6041762575">
          <pickID>smi:local/21694276</pickID>
          <phase>Sb</phase>
          <azimuth>155.31</azimuth>
          <distance>2.53</distance>
          <timeResidual>-0.249</timeResidual>
          <timeWeight>-1.0</timeWeight>
        </arrival>
      </origin>
      <origin publicID="smi:local/404399">
        <time>
          <value>2007-08-07T07:13:05.760000Z</value>
        </time>
        <latitude>
          <value>39.4605</value>
        </latitude>
        <longitude>
          <value>-111.2242</value>
        </longitude>
        <depth>
          <value>3240.0</value>
        </depth>
        <quality>
          <standardError>0.9901</standardError>
        </quality>
        <arrival publicID="smi:local/6db33bc2-5442-4879-af00-6ae98be17fbb">
          <pickID>smi:local/21694196</pickID>
          <phase>Pg</phase>
          <azimuth>294.03</azimuth>
          <distance>0.36700000000000005</distance>
          <timeResidual>0.736</timeResidual>
          <timeWeight>-1.0</timeWeight>
        </arrival>
        <arrival publicID="smi:local/40b626bc-d4ba-48ee-a261-3747c279f7c1">
          <pickID>smi:local/21694197</pickID>
          <phase>Pg</phase>
          <azimuth>175.69</azimuth>
          <distance>0.544</distance>
          <timeResidual>-0.235</timeResidual>
          <timeWeight>-1.0</timeWeight>
        </arrival>
        <arrival publicID="smi:local/48000d51-8f4d-4c66-bd68-5d437d571ce4">
          <pickID>smi:local/21694198</pickID>
          <phase>Pg</phase>
          <azimuth>122.6</azimuth>
          <distance>0.645</distance>
          <timeResidual>-0.5670000000000001</timeResidual>
          <timeWeight>-1.0</timeWeight>
        </arrival>
        <arrival publicID="smi:local/c5d9c6b6-9984-48fd-b2c7-71ee20a247a0">
          <pickID>smi:local/21694199</pickID>
          <phase>Pg</phase>
          <azimuth>77.18</azimuth>
          <distance>0.773</distance>
