<?xml version='1.0' encoding='utf-8'?>
<q:quakeml xmlns="http://quakeml.org/xmlns/bed/1.2" xmlns:q="http://quakeml.org/xmlns/quakeml/1.2">
  <eventParameters publicID="smi:local/2b7d7f69-cfe4-4ce1-9547-073a453732f9">
    <event publicID="smi:local/02468992-da3e-407b-b0bf-7b8450a2bbb0">
      <preferredOriginID>smi:local/ea9d2d1f-10a8-45a3-9a3e-924ce90faf73</preferredOriginID>
      <preferredMagnitudeID>smi:local/179f4d5c-77e8-4a81-8e4b-56d41963c290</preferredMagnitudeID>
      <creationInfo>
        <agencyID>NIOSH</agencyID>
        <author>DC</author>
        <creationTime>2021-02-04T22:25:40.792285Z</creationTime>
      </creationInfo>
      <origin publicID="smi:local/ea9d2d1f-10a8-45a3-9a3e-924ce90faf73">
        <time>
          <value>2013-04-11T05:16:12.350000Z</value>
        </time>
        <latitude>
          <value>40.535666666666664</value>
        </latitude>
        <longitude>
          <value>-112.16283333333334</value>
        </longitude>
        <depth>
          <value>2230.0</value>
          <uncertainty>1720.0</uncertainty>
        </depth>
        <quality>
          <associatedPhaseCount>46</associatedPhaseCount>
          <standardError>0.18</standardError>
          <azimuthalGap>68.0</azimuthalGap>
          <minimumDistance>0.07194572847349845</minimumDistance>
        </quality>
        <originUncertainty>
          <horizontalUncertainty>260.0</horizontalUncertainty>
        </originUncertainty>
        <arrival publicID="smi:local/93e8a33b-9225-426d-a2de-8359a5757e4d">
          <pickID>smi:local/5ee9d6f7-389a-49c6-b545-ad9259c8d248</pickID>
          <phase>P</phase>
          <timeCorrection>0.0</timeCorrection>
          <azimuth>235.0</azimuth>
          <distance>0.6016461543596308</distance>
          <timeResidual>0.23</timeResidual>
          <timeWeight>1.0</timeWeight>
        </arrival>
        <arrival publicID="smi:local/04d22527-14a5-4364-931c-e720d302ad44">
          <pickID>smi:local/883f56b1-5247-4a58-8dbc-862fec5c95f3</pickID>
          <phase>P</phase>
          <timeCorrection>0.0</timeCorrection>
          <azimuth>22.0</azimuth>
          <distance>1.1619235148469997</distance>
          <timeResidual>-0.4</timeResidual>
          <timeWeight>0.5</timeWeight>
        </arrival>
        <arrival publicID="smi:local/c20d033c-91be-4c49-9f52-2c0f3ed6a950">
          <pickID>smi:local/81c05a21-8946-43d5-abd2-a9471e58ed55</pickID>
          <phase>P</phase>
          <timeCorrection>0.0</timeCorrection>
          <azimuth>120.0</azimuth>
          <distance>1.4281227101989442</distance>
          <timeResidual>-0.37</timeResidual>
          <timeWeight>0.5</timeWeight>
        </arrival>
        <arrival publicID="smi:local/eef00cd5-44f2-4874-9b74-14a56762b1a9">
          <pickID>smi:local/6ed0ee89-f5f4-4570-b662-e9d2c268946e</pickID>
          <phase>P</phase>
          <timeCorrection>0.0</timeCorrection>
          <azimuth>90.0</azimuth>
          <distance>1.064796781407777</distance>
          <timeResidual>-0.36</timeResidual>
          <timeWeight>0.5</timeWeight>
        </arrival>
        <arrival publicID="smi:local/6533a4c0-5fe6-4f32-af4b-52d9d02c543a">
          <pickID>smi:local/84c8d25c-0171-4442-a165-9b4ab5c2489d</pickID>
          <phase>P</phase>
          <timeCorrection>0.0</timeCorrection>
          <azimuth>63.0</azimuth>
          <distance>0.3498361047023862</distance>
          <timeResidual>-0.23</timeResidual>
          <timeWeight>1.0</timeWeight>
        </arrival>
        <arrival publicID="smi:local/09f9ed15-ae56-41b4-ab31-afe089f4e608">
          <pickID>smi:local/cc46ed28-d842-4185-b83a-ce68da17fea6</pickID>
          <phase>P</phase>
          <timeCorrection>0.0</timeCorrection>
          <azimuth>152.0</azimuth>
          <distance>0.10072401986289782</distance>
          <timeResidual>-0.28</timeResidual>
          <timeWeight>1.0</timeWeight>
        </arrival>
        <arrival publicID="smi:local/06f484e4-9cc9-4e08-b0ae-956f472bd787">
          <pickID>smi:local/89f300c3-5208-4cf5-bd27-0d46099a942c</pickID>
          <phase>P</phase>
          <timeCorrection>0.0</timeCorrection>
          <azimuth>100.0</azimuth>
          <distance>0.7005715310106911</distance>
          <timeResidual>0.18</timeResidual>
          <timeWeight>1.0</timeWeight>
        </arrival>
        <arrival publicID="smi:local/9d7889df-a85d-4175-bf9d-81f69ffbc9fe">
          <pickID>smi:local/61ca7156-31f6-4663-8b92-43318499de78</pickID>
          <phase>P</phase>
          <timeCorrection>0.0</timeCorrection>
          <azimuth>104.0</azimuth>
          <distance>0.49912349128489547</distance>
          <timeResidual>-0.12</timeResidual>
          <timeWeight>1.0</timeWeight>
        </arrival>
        <arrival publicID="smi:local/f948829e-45db-4b67-90b1-fc70b88ea13b">
          <pickID>smi:local/1d1297e1-b2dd-4611-ab93-41765bda1905</pickID>
          <phase>P</phase>
          <timeCorrection>0.0</timeCorrection>
          <azimuth>140.0</azimuth>
          <distance>1.1574269068174061</distance>
          <timeResidual>0.28</timeResidual>
          <timeWeight>0.5</timeWeight>
        </arrival>
        <arrival publicID="smi:local/26b634d2-54c7-44d5-a0fb-6426859c66e8">
          <pickID>smi:local/c15116c0-9f1f-4eb7-a386-afa097ab0720</pickID>
          <phase>P</phase>
          <timeCorrection>0.0</timeCorrection>
          <azimuth>347.0</azimuth>
          <distance>0.8759392441648436</distance>
          <timeResidual>0.11</timeResidual>
          <timeWeight>0.5</timeWeight>
        </arrival>
        <arrival publicID="smi:local/64e71a16-de43-4f81-9f8e-572449fb09ec">
          <pickID>smi:local/ff85b461-3e81-4a3f-bef7-6e0f1d5c677b</pickID>
          <phase>P</phase>
          <timeCorrection>0.0</timeCorrection>
          <azimuth>180.0</azimuth>
          <distance>1.1574269068174061</distance>
          <timeResidual>-0.25</timeResidual>
          <timeWeight>0.5</timeWeight>
        </arrival>
        <arrival publicID="smi:local/c4ffdf8d-12f9-430d-bd8e-a32ebe3a2ff5">
          <pickID>smi:local/80edf42c-d69f-4f80-bd1b-a18fd95b3c0b</pickID>
          <phase>P</phase>
          <timeCorrection>0.0</timeCorrection>
          <azimuth>26.0</azimuth>
          <distance>0.5494855012163443</distance>
          <timeResidual>-0.35</timeResidual>
          <timeWeight>1.0</timeWeight>
        </arrival>
        <arrival publicID="smi:local/1c8f4294-26bc-4747-bc95-104f4b7ecb29">
          <pickID>smi:local/596172c1-f232-4dd5-bdf0-38ca53f40d29</pickID>
          <phase>P</phase>
          <timeCorrection>0.0</timeCorrection>
          <azimuth>82.0</azimuth>
          <distance>0.30666866761828715</distance>
          <timeResidual>-0.26</timeResidual>
          <timeWeight>1.0</timeWeight>
        </arrival>
        <arrival publicID="smi:local/b0a47ef4-4143-4395-ab56-6bd1c56388ee">
          <pickID>smi:local/7e8a9dca-3acd-4d26-b23d-d636bcb99431</pickID>
          <phase>P</phase>
          <timeCorrection>0.0</timeCorrection>
          <azimuth>9.0</azimuth>
          <distance>0.901120249130568</distance>
          <timeResidual>-0.3</timeResidual>
          <timeWeight>0.5</timeWeight>
        </arrival>
        <arrival publicID="smi:local/690493e7-360a-4359-bb9c-68731da0c2fb">
          <pickID>smi:local/80010f0d-fe2e-4168-898a-3bc94c55650a</pickID>
          <phase>P</phase>
          <timeCorrection>0.0</timeCorrection>
          <azimuth>13.0</azimuth>
          <distance>1.3040163285821593</distance>
          <timeResidual>-0.49</timeResidual>
          <timeWeight>0.5</timeWeight>
        </arrival>
        <arrival publicID="smi:local/9aa5f060-06c6-4649-84c5-41097e97d655">
          <pickID>smi:local/4f8aca40-dfc8-4408-89de-4297baed3864</pickID>
          <phase>P</phase>
          <timeCorrection>0.0</timeCorrection>
          <azimuth>82.0</azimuth>
          <distance>0.5836597222412562</distance>
          <timeResidual>-0.06</timeResidual>
          <timeWeight>1.0</timeWeight>
        </arrival>
        <arrival publicID="smi:local/84407d94-fc3d-4885-97d0-2dd80fe42a2e">
          <pickID>smi:local/2667c645-7370-4102-8474-24b6f8dd9bb0</pickID>
          <phase>P</phase>
          <timeCorrection>0.0</timeCorrection>
          <azimuth>39.0</azimuth>
          <distance>0.333648315795849</distance>
          <timeResidual>0.09</timeResidual>
          <timeWeight>1.0</timeWeight>
        </arrival>
        <arrival publicID="smi:local/51164851-4ad2-4537-9b10-1e38543c004f">
          <pickID>smi:local/d84279fe-cf69-4b3f-9051-58dd586fe114</pickID>
          <phase>P</phase>
          <timeCorrection>0.0</timeCorrection>
          <azimuth>79.0</azimuth>
          <distance>0.7284505007941717</distance>
          <timeResidual>0.15</timeResidual>
          <timeWeight>1.0</timeWeight>
        </arrival>
        <arrival publicID="smi:local/313b5b30-799f-4233-a23d-eae1e1743676">
          <pickID>smi:local/24df382e-1835-4d13-8ae4-0f2c465b1295</pickID>
          <phase>P</phase>
          <timeCorrection>0.0</timeCorrection>
          <azimuth>339.0</azimuth>
          <distance>1.3264993687301276</distance>
          <timeResidual>-0.28</timeResidual>
          <timeWeight>0.5</timeWeight>
        </arrival>
        <arrival publicID="smi:local/e848ee41-8f25-4724-ba5e-314032e93476">
          <pickID>smi:local/5b36b9ae-4c2f-4bb1-92d7-346802f54b7c</pickID>
          <phase>P</phase>
          <timeCorrection>0.0</timeCorrection>
          <azimuth>83.0</azimuth>
          <distance>0.5458882147926695</distance>
          <timeResidual>-0.35</timeResidual>
          <timeWeight>1.0</timeWeight>
        </arrival>
        <arrival publicID="smi:local/a1e0f71b-50a1-4f04-9a32-644fcc88e21f">
          <pickID>smi:local/a5090db3-41ed-4a6b-b32e-a729b8ea48a9</pickID>
          <phase>P</phase>
          <timeCorrection>0.0</timeCorrection>
          <azimuth>80.0</azimuth>
          <distance>0.5836597222412562</distance>
          <timeResidual>-0.1</timeResidual>
          <timeWeight>1.0</timeWeight>
        </arrival>
        <arrival publicID="smi:local/2f8e987c-b964-4db1-892e-0ecc7575fb0a">
          <pickID>smi:local/5b167d73-68b3-438d-af17-002bf38eb43d</pickID>
          <phase>P</phase>
          <timeCorrection>0.0</timeCorrection>
          <azimuth>85.0</azimuth>
          <distance>0.5746665061820688</distance>
          <timeResidual>0.15</timeResidual>
          <timeWeight>1.0</timeWeight>
        </arrival>
        <arrival publicID="smi:local/ad795cab-b27b-4f72-9e55-746b5b6be982">
          <pickID>smi:local/3f141de8-9446-4ff4-8eb1-4fc9123d4298</pickID>
          <phase>P</phase>
          <timeCorrection>0.0</timeCorrection>
          <azimuth>68.0</azimuth>
          <distance>0.9532809022738544</distance>
          <timeResidual>0.22</timeResidual>
          <timeWeight>0.5</timeWeight>
        </arrival>
        <arrival publicID="smi:local/5524cf3c-83a2-4139-b111-5e8f48697345">
          <pickID>smi:local/50134d4e-44d3-41f0-92d1-12884a0030d3</pickID>
          <phase>P</phase>
          <timeCorrection>0.0</timeCorrection>
          <azimuth>356.0</azimuth>
          <distance>1.0585015301663458</distance>
          <timeResidual>0.27</timeResidual>
          <timeWeight>1.0</timeWeight>
        </arrival>
        <arrival publicID="smi:local/629be9db-36bd-4d18-8369-b736538f67f2">
          <pickID>smi:local/d26ec77c-8220-4a77-ad09-3a76a30518bb</pickID>
          <phase>P</phase>
          <timeCorrection>0.0</timeCorrection>
          <azimuth>65.0</azimuth>
          <distance>0.3021720595886935</distance>
          <timeResidual>0.1</timeResidual>
          <timeWeight>1.0</timeWeight>
        </arrival>
        <arrival publicID="smi:local/eea8dee3-6973-4490-a0a8-de9f5a7e2673">
          <pickID>smi:local/1874bc1a-c53c-48f2-b236-9e643e528f12</pickID>
          <phase>P</phase>
          <timeCorrection>0.0</timeCorrection>
          <azimuth>142.0</azimuth>
          <distance>0.6583034155325108</distance>
          <timeResidual>0.0</timeResidual>
          <timeWeight>1.0</timeWeight>
        </arrival>
        <arrival publicID="smi:local/06453b6f-6f3f-48a5-8df1-ac72456dda21">
          <pickID>smi:local/0fea10de-6818-4874-ae6e-fba6916e6cdd</pickID>
          <phase>P</phase>
          <timeCorrection>0.0</timeCorrection>
          <azimuth>349.0</azimuth>
          <distance>1.1565275852114874</distance>
          <timeResidual>-0.14</timeResidual>
          <timeWeight>0.5</timeWeight>
        </arrival>
        <arrival publicID="smi:local/ec887aab-8d37-48cc-ad49-b43177639d3b">
          <pickID>smi:local/de8a4391-3c57-4058-a9d3-d879961f7d64</pickID>
          <phase>P</phase>
          <timeCorrection>0.0</timeCorrection>
          <azimuth>354.0</azimuth>
          <distance>0.4829357023783583</distance>
          <timeResidual>-0.13</timeResidual>
          <timeWeight>0.5</timeWeight>
        </arrival>
        <arrival publicID="smi:local/bc966396-8388-4f74-9dd5-5ee2cbef0983">
          <pickID>smi:local/83001f28-c07b-48d3-a7a3-a2c2c2bc0f5f</pickID>
          <phase>P</phase>
          <timeCorrection>0.0</timeCorrection>
          <azimuth>173.0</azimuth>
          <distance>0.5845590438471748</distance>
          <timeResidual>0.08</timeResidual>
          <timeWeight>1.0</timeWeight>
        </arrival>
        <arrival publicID="smi:local/2b94c524-6709-41f8-9c33-e76971ca6bb0">
          <pickID>smi:local/3aee52bd-6628-4ccb-9309-7095ceef9a7e</pickID>
          <phase>P</phase>
          <timeCorrection>0.0</timeCorrection>
          <azimuth>47.0</azimuth>
          <distance>0.36422525039708586</distance>
          <timeResidual>-0.2</timeResidual>
          <timeWeight>1.0</timeWeight>
        </arrival>
        <arrival publicID="smi:local/8ee2cfc2-47c9-4335-a3cd-046fbaadcf5e">
          <pickID>smi:local/d5471f56-2250-45a5-a0e4-9f917c367b30</pickID>
          <phase>P</phase>
          <timeCorrection>0.0</timeCorrection>
          <azimuth>57.0</azimuth>
          <distance>0.6529074858969983</distance>
          <timeResidual>0.49</timeResidual>
          <timeWeight>0.5</timeWeight>
        </arrival>
        <arrival publicID="smi:local/4d836bb0-1886-40a2-af61-d456e2b187e0">
          <pickID>smi:local/b3c706e2-8a10-49b8-8814-44ace1789f36</pickID>
          <phase>P</phase>
          <timeCorrection>0.0</timeCorrection>
          <azimuth>357.0</azimuth>
          <distance>0.31925917010114935</distance>
          <timeResidual>-0.04</timeResidual>
          <timeWeight>1.0</timeWeight>
        </arrival>
        <arrival publicID="smi:local/2ebe0e79-1f4b-4492-ad2b-8dbac792748b">
          <pickID>smi:local/957740a6-1df8-402b-8d55-0e1a7c0f06c0</pickID>
          <phase>P</phase>
          <timeCorrection>0.0</timeCorrection>
          <azimuth>163.0</azimuth>
          <distance>1.4101362780805695</distance>
          <timeResidual>-0.21</timeResidual>
          <timeWeight>1.0</timeWeight>
        </arrival>
        <arrival publicID="smi:local/1b4c1df7-6f39-40bd-ae0a-b65f16363196">
          <pickID>smi:local/82b2c567-8712-49bb-9e3f-bf07a49ad899</pickID>
          <phase>P</phase>
          <timeCorrection>0.0</timeCorrection>
          <azimuth>158.0</azimuth>
          <distance>1.3067142933999156</distance>
          <timeResidual>0.11</timeResidual>
          <timeWeight>0.5</timeWeight>
        </arrival>
        <arrival publicID="smi:local/1a2dacfa-4c4e-4647-95f0-b4a52ee8dc04">
          <pickID>smi:local/818ca778-1e2d-4931-b3fb-8147cca420f9</pickID>
          <phase>P</phase>
          <timeCorrection>0.0</timeCorrection>
          <azimuth>323.0</azimuth>
          <distance>0.437070300476503</distance>
          <timeResidual>0.23</timeResidual>
          <timeWeight>0.5</timeWeight>
        </arrival>
        <arrival publicID="smi:local/75184244-2a0c-4676-86e1-f196bbbf0256">
          <pickID>smi:local/b32cea48-b0a6-4b64-9565-837738691eb9</pickID>
          <phase>P</phase>
          <timeCorrection>0.0</timeCorrection>
          <azimuth>344.0</azimuth>
          <distance>0.8030941940854264</distance>
          <timeResidual>-0.11</timeResidual>
          <timeWeight>0.5</timeWeight>
        </arrival>
        <arrival publicID="smi:local/107b9314-a22a-4d55-a3c1-f2922aa67c00">
          <pickID>smi:local/b8c8a5f4-6cfe-48be-b903-c11a8629644f</pickID>
          <phase>P</phase>
          <timeCorrection>0.0</timeCorrection>
          <azimuth>156.0</azimuth>
          <distance>0.7068667822521222</distance>
          <timeResidual>-0.01</timeResidual>
          <timeWeight>1.0</timeWeight>
        </arrival>
        <arrival publicID="smi:local/60e8658c-c921-474d-a83f-8682ca4eced0">
          <pickID>smi:local/f69dec88-d3fb-4a79-a6a7-0bc7ae20056b</pickID>
          <phase>P</phase>
          <timeCorrection>0.0</timeCorrection>
          <azimuth>44.0</azimuth>
          <distance>0.8156846965682886</distance>
          <timeResidual>0.18</timeResidual>
          <timeWeight>1.0</timeWeight>
        </arrival>
        <arrival publicID="smi:local/d0c9ed18-21a2-4f70-a3b5-ad8fd2e4675a">
          <pickID>smi:local/1c74f264-5446-4109-b72e-5e88e1c48378</pickID>
          <phase>P</phase>
          <timeCorrection>0.0</timeCorrection>
          <azimuth>104.0</azimuth>
          <distance>0.3597286423674922</distance>
          <timeResidual>-0.1</timeResidual>
          <timeWeight>0.5</timeWeight>
        </arrival>
        <arrival publicID="smi:local/c3fb27fd-28ac-413a-98cc-73c56d18a801">
          <pickID>smi:local/d17ae999-5b54-4bf3-a0f0-a3df03198056</pickID>
          <phase>P</phase>
          <timeCorrection>0.0</timeCorrection>
          <azimuth>151.0</azimuth>
          <distance>0.5234051746447012</distance>
          <timeResidual>0.15</timeResidual>
          <timeWeight>0.5</timeWeight>
        </arrival>
        <arrival publicID="smi:local/32a3f003-93ab-47e5-8b0a-9773674e0791">
          <pickID>smi:local/7c61c1c8-a55b-4e99-9eea-b98a914abc91</pickID>
          <phase>P</phase>
          <timeCorrection>0.0</timeCorrection>
          <azimuth>8.0</azimuth>
          <distance>1.0854811783439078</distance>
          <timeResidual>-0.31</timeResidual>
          <timeWeight>0.5</timeWeight>
        </arrival>
      </origin>
      <magnitude publicID="smi:local/179f4d5c-77e8-4a81-8e4b-56d41963c290">
        <mag>
          <value>2.9724444444444447</value>
        </mag>
        <type>Md</type>
        <originID>smi:local/ea9d2d1f-10a8-45a3-9a3e-924ce90faf73</originID>
        <stationMagnitudeContribution>
          <stationMagnitudeID>smi:local/352bb11b-55bd-4bfd-9e4e-385679a67921</stationMagnitudeID>
          <weight>1.0</weight>
        </stationMagnitudeContribution>
        <stationMagnitudeContribution>
          <stationMagnitudeID>smi:local/8b9574a6-108b-495a-9c6a-a5e24c0fa12d</stationMagnitudeID>
          <weight>1.0</weight>
        </stationMagnitudeContribution>
        <stationMagnitudeContribution>
          <stationMagnitudeID>smi:local/d2c6b1f8-9fe4-4e73-bf55-ebf9d6a7af3e</stationMagnitudeID>
          <weight>1.0</weight>
        </stationMagnitudeContribution>
        <stationMagnitudeContribution>
          <stationMagnitudeID>smi:local/7628705f-4753-4963-8caa-b92ee63e60a1</stationMagnitudeID>
          <weight>1.0</weight>
        </stationMagnitudeContribution>
        <stationMagnitudeContribution>
          <stationMagnitudeID>smi:local/a5e1ff5f-2f1d-42b5-88bb-5179ce5f6cc1</stationMagnitudeID>
          <weight>1.0</weight>
        </stationMagnitudeContribution>
        <stationMagnitudeContribution>
          <stationMagnitudeID>smi:local/d86d5736-6e42-436d-bcc9-cdd4dfcf2cb9</stationMagnitudeID>
          <weight>1.0</weight>
        </stationMagnitudeContribution>
        <stationMagnitudeContribution>
          <stationMagnitudeID>smi:local/116eb02d-c95c-4964-b2bf-8e56c739f608</stationMagnitudeID>
          <weight>1.0</weight>
