<?xml version='1.0' encoding='utf-8'?>
<q:quakeml xmlns="http://quakeml.org/xmlns/bed/1.2" xmlns:q="http://quakeml.org/xmlns/quakeml/1.2">
  <eventParameters publicID="smi:local/ce386457-227a-45dd-ae80-7dfb28885464">
    <event publicID="smi:local/467ae95b-1254-48fa-89c9-0d83440fd90e">
      <preferredOriginID>smi:local/9049ca2b-b51b-4b23-a2d2-719332cd2c5a</preferredOriginID>
      <preferredMagnitudeID>smi:local/fff056e7-7598-4f2f-befb-258dde686c21</preferredMagnitudeID>
      <creationInfo>
        <agencyID>NIOSH</agencyID>
        <author>DC</author>
        <creationTime>2021-02-04T22:26:46.076772Z</creationTime>
      </creationInfo>
      <origin publicID="smi:local/9049ca2b-b51b-4b23-a2d2-719332cd2c5a">
        <time>
          <value>2013-04-11T06:06:42.760000Z</value>
        </time>
        <latitude>
          <value>40.54266666666667</value>
        </latitude>
        <longitude>
          <value>-112.141</value>
        </longitude>
        <depth>
          <value>-400.0</value>
          <uncertainty>2250.0</uncertainty>
        </depth>
        <quality>
          <associatedPhaseCount>9</associatedPhaseCount>
          <standardError>0.18</standardError>
          <azimuthalGap>193.0</azimuthalGap>
          <minimumDistance>0.044966080295936524</minimumDistance>
        </quality>
        <originUncertainty>
          <horizontalUncertainty>820.0</horizontalUncertainty>
        </originUncertainty>
        <arrival publicID="smi:local/68eda8b4-56c6-4a2f-9610-023b66153fd4">
          <pickID>smi:local/477b074d-a38e-454d-864a-88f69c9dfa9c</pickID>
          <phase>S</phase>
          <timeCorrection>0.0</timeCorrection>
          <azimuth>57.0</azimuth>
          <distance>0.043167437084099064</distance>
          <timeResidual>-0.14</timeResidual>
          <timeWeight>1.0</timeWeight>
        </arrival>
        <arrival publicID="smi:local/cabcc497-e353-49fe-a617-f51a124cc1f4">
          <pickID>smi:local/d822e5e4-da91-4909-b840-f3998f9a227d</pickID>
          <phase>P</phase>
          <timeCorrection>0.0</timeCorrection>
          <azimuth>63.0</azimuth>
          <distance>0.33184967258401155</distance>
          <timeResidual>0.87</timeResidual>
          <timeWeight>0.0</timeWeight>
        </arrival>
        <arrival publicID="smi:local/1be62b52-059a-43d5-8613-38c3929e80ff">
          <pickID>smi:local/a1d4c7ea-79bc-4bcc-8ea7-2cdcaab256ee</pickID>
          <phase>P</phase>
          <timeCorrection>0.0</timeCorrection>
          <azimuth>163.0</azimuth>
          <distance>0.10162334146881656</distance>
          <timeResidual>-0.14</timeResidual>
          <timeWeight>1.0</timeWeight>
        </arrival>
        <arrival publicID="smi:local/8fa17433-512b-48f5-871b-562d7bc8b77d">
          <pickID>smi:local/c9ab8bba-93c2-4e9e-9202-7e152abe5efe</pickID>
          <phase>P</phase>
          <timeCorrection>0.0</timeCorrection>
          <azimuth>83.0</azimuth>
          <distance>0.2886822354999125</distance>
          <timeResidual>1.17</timeResidual>
          <timeWeight>0.0</timeWeight>
        </arrival>
        <arrival publicID="smi:local/63e26584-68de-466f-a487-268fb207d7f5">
          <pickID>smi:local/7df093e8-c6ad-44b7-a3db-eff08fd17b05</pickID>
          <phase>P</phase>
          <timeCorrection>0.0</timeCorrection>
          <azimuth>354.0</azimuth>
          <distance>0.31386324046563696</distance>
          <timeResidual>0.13</timeResidual>
          <timeWeight>1.0</timeWeight>
        </arrival>
        <arrival publicID="smi:local/1b38a7cd-e8c6-493a-a99e-01ac3c87402c">
          <pickID>smi:local/a24e939e-7930-4e71-a10a-66d40d49450e</pickID>
          <phase>S</phase>
          <timeCorrection>0.0</timeCorrection>
          <azimuth>121.0</azimuth>
          <distance>0.1672738187008839</distance>
          <timeResidual>0.44</timeResidual>
          <timeWeight>0.5</timeWeight>
        </arrival>
        <arrival publicID="smi:local/49f1d842-ec05-486b-aa54-72321be0d026">
          <pickID>smi:local/ca67fa70-6043-4f02-a5be-0902cd15ab1c</pickID>
          <phase>P</phase>
          <timeCorrection>0.0</timeCorrection>
          <azimuth>121.0</azimuth>
          <distance>0.1672738187008839</distance>
          <timeResidual>0.33</timeResidual>
          <timeWeight>1.0</timeWeight>
        </arrival>
      </origin>
      <magnitude publicID="smi:local/fff056e7-7598-4f2f-befb-258dde686c21">
        <mag>
          <value>0.388</value>
        </mag>
        <type>Md</type>
        <originID>smi:local/9049ca2b-b51b-4b23-a2d2-719332cd2c5a</originID>
        <stationMagnitudeContribution>
          <stationMagnitudeID>smi:local/cfc1635b-ae0f-47bb-9b23-bd23343d6180</stationMagnitudeID>
          <weight>1.0</weight>
        </stationMagnitudeContribution>
        <stationMagnitudeContribution>
          <stationMagnitudeID>smi:local/9fa77876-c282-4ff6-91ac-d1ce1026dfac</stationMagnitudeID>
          <weight>1.0</weight>
        </stationMagnitudeContribution>
        <stationMagnitudeContribution>
          <stationMagnitudeID>smi:local/27311aff-2967-4768-96fa-8a8382eb64d7</stationMagnitudeID>
          <weight>0.5</weight>
        </stationMagnitudeContribution>
      </magnitude>
      <stationMagnitude publicID="smi:local/cfc1635b-ae0f-47bb-9b23-bd23343d6180">
        <originID>smi:local/9049ca2b-b51b-4b23-a2d2-719332cd2c5a</originID>
        <mag>
          <value>1.1</value>
        </mag>
        <type>Md</type>
        <waveformID networkCode="UU" stationCode="CWU" locationCode="01" channelCode="EHZ"></waveformID>
      </stationMagnitude>
      <stationMagnitude publicID="smi:local/9fa77876-c282-4ff6-91ac-d1ce1026dfac">
        <originID>smi:local/9049ca2b-b51b-4b23-a2d2-719332cd2c5a</originID>
        <mag>
          <value>-0.28</value>
        </mag>
        <type>Md</type>
        <waveformID networkCode="UU" stationCode="SAIU" locationCode="02" channelCode="EHZ"></waveformID>
      </stationMagnitude>
      <stationMagnitude publicID="smi:local/27311aff-2967-4768-96fa-8a8382eb64d7">
        <originID>smi:local/9049ca2b-b51b-4b23-a2d2-719332cd2c5a</originID>
        <mag>
          <value>0.3</value>
        </mag>
        <type>Md</type>
        <waveformID networkCode="UU" stationCode="WTU" locationCode="01" channelCode="EHZ"></waveformID>
      </stationMagnitude>
      <pick publicID="smi:local/477b074d-a38e-454d-864a-88f69c9dfa9c">
        <time>
          <value>2013-04-11T06:06:44.910000Z</value>
        </time>
        <waveformID networkCode="UU" stationCode="CFS" locationCode="01" channelCode="ENZ"></waveformID>
        <methodID>smi:local/spick_0.0.0</methodID>
        <onset>impulsive</onset>
        <phaseHint>S</phaseHint>
        <evaluationStatus>reviewed</evaluationStatus>
        <creationInfo>
          <agencyID>NIOSH</agencyID>
          <creationTime>2021-02-04T22:26:46.075459Z</creationTime>
        </creationInfo>
      </pick>
      <pick publicID="smi:local/d822e5e4-da91-4909-b840-f3998f9a227d">
        <time>
          <value>2013-04-11T06:06:50.430000Z</value>
        </time>
        <waveformID networkCode="UU" stationCode="CTU" locationCode="01" channelCode="HHZ"></waveformID>
        <methodID>smi:local/spick_0.0.0</methodID>
        <onset>emergent</onset>
        <phaseHint>P</phaseHint>
        <evaluationStatus>reviewed</evaluationStatus>
        <creationInfo>
          <agencyID>NIOSH</agencyID>
          <creationTime>2021-02-04T22:26:46.076573Z</creationTime>
        </creationInfo>
      </pick>
      <pick publicID="smi:local/a1d4c7ea-79bc-4bcc-8ea7-2cdcaab256ee">
        <time>
          <value>2013-04-11T06:06:45.100000Z</value>
        </time>
        <waveformID networkCode="UU" stationCode="CWU" locationCode="01" channelCode="EHZ"></waveformID>
        <methodID>smi:local/spick_0.0.0</methodID>
        <onset>impulsive</onset>
        <phaseHint>P</phaseHint>
        <evaluationStatus>reviewed</evaluationStatus>
        <creationInfo>
          <agencyID>NIOSH</agencyID>
          <creationTime>2021-02-04T22:26:46.076144Z</creationTime>
        </creationInfo>
      </pick>
      <pick publicID="smi:local/c9ab8bba-93c2-4e9e-9202-7e152abe5efe">
        <time>
          <value>2013-04-11T06:06:49.940000Z</value>
        </time>
        <waveformID networkCode="UU" stationCode="GMU" locationCode="01" channelCode="EHZ"></waveformID>
        <methodID>smi:local/spick_0.0.0</methodID>
        <onset>emergent</onset>
        <phaseHint>P</phaseHint>
        <evaluationStatus>reviewed</evaluationStatus>
        <creationInfo>
          <agencyID>NIOSH</agencyID>
          <creationTime>2021-02-04T22:26:46.076678Z</creationTime>
        </creationInfo>
      </pick>
      <pick publicID="smi:local/7df093e8-c6ad-44b7-a3db-eff08fd17b05">
        <time>
          <value>2013-04-11T06:06:49.230000Z</value>
        </time>
        <waveformID networkCode="UU" stationCode="SAIU" locationCode="02" channelCode="EHZ"></waveformID>
        <methodID>smi:local/spick_0.0.0</methodID>
        <onset>impulsive</onset>
        <phaseHint>P</phaseHint>
        <evaluationStatus>reviewed</evaluationStatus>
        <creationInfo>
          <agencyID>NIOSH</agencyID>
          <creationTime>2021-02-04T22:26:46.075010Z</creationTime>
        </creationInfo>
      </pick>
      <pick publicID="smi:local/a24e939e-7930-4e71-a10a-66d40d49450e">
        <time>
          <value>2013-04-11T06:06:49.550000Z</value>
        </time>
        <waveformID networkCode="UU" stationCode="WTU" locationCode="01" channelCode="EHN"></waveformID>
        <methodID>smi:local/spick_0.0.0</methodID>
        <onset>emergent</onset>
        <phaseHint>S</phaseHint>
        <evaluationStatus>reviewed</evaluationStatus>
        <creationInfo>
          <agencyID>NIOSH</agencyID>
          <creationTime>2021-02-04T22:26:46.075675Z</creationTime>
        </creationInfo>
      </pick>
      <pick publicID="smi:local/ca67fa70-6043-4f02-a5be-0902cd15ab1c">
        <time>
          <value>2013-04-11T06:06:46.730000Z</value>
        </time>
        <waveformID networkCode="UU" stationCode="WTU" locationCode="01" channelCode="EHZ"></waveformID>
        <methodID>smi:local/spick_0.0.0</methodID>
        <onset>impulsive</onset>
        <phaseHint>P</phaseHint>
        <evaluationStatus>reviewed</evaluationStatus>
        <creationInfo>
          <agencyID>NIOSH</agencyID>
          <creationTime>2021-02-04T22:26:46.075245Z</creationTime>
        </creationInfo>
      </pick>
      <pick publicID="smi:local/3d67bc8f-10fa-4eb7-96b5-3514be8bfca7">
        <time>
          <value>2013-04-11T06:06:43.844292Z</value>
          <uncertainty>0.015524625778198242</uncertainty>
        </time>
        <waveformID networkCode="UU" stationCode="CFS" locationCode="01" channelCode="ENZ"></waveformID>
        <methodID>smi:local/spick_0.0.0</methodID>
        <onset>impulsive</onset>
        <phaseHint>P</phaseHint>
        <evaluationMode>manual</evaluationMode>
        <evaluationStatus>reviewed</evaluationStatus>
        <creationInfo>
          <agencyID>NIOSH</agencyID>
          <author>DC</author>
          <creationTime>2021-02-04T22:26:46.074476Z</creationTime>
        </creationInfo>
      </pick>
      <pick publicID="smi:local/e6fcb76a-2624-4d88-b8de-7d255a69e6a1">
        <time>
          <value>2013-04-11T06:06:45.052929Z</value>
          <uncertainty>0.013778448104858398</uncertainty>
        </time>
        <waveformID networkCode="UU" stationCode="HER" locationCode="01" channelCode="ENZ"></waveformID>
        <methodID>smi:local/spick_0.0.0</methodID>
        <onset>impulsive</onset>
        <phaseHint>P</phaseHint>
        <evaluationMode>manual</evaluationMode>
        <evaluationStatus>reviewed</evaluationStatus>
        <creationInfo>
          <agencyID>NIOSH</agencyID>
          <author>DC</author>
          <creationTime>2021-02-04T22:26:46.075870Z</creationTime>
        </creationInfo>
      </pick>
      <pick publicID="smi:local/f5fe8008-c1b1-4bd4-bc12-f68818940ce5">
        <time>
          <value>2013-04-11T06:06:45.203650Z</value>
          <uncertainty>0.005223751068115234</uncertainty>
        </time>
        <waveformID networkCode="UU" stationCode="NOQ" locationCode="01" channelCode="HHZ"></waveformID>
        <methodID>smi:local/spick_0.0.0</methodID>
        <onset>impulsive</onset>
        <phaseHint>P</phaseHint>
        <polarity>positive</polarity>
        <evaluationMode>manual</evaluationMode>
        <evaluationStatus>reviewed</evaluationStatus>
        <creationInfo>
          <agencyID>NIOSH</agencyID>
          <author>DC</author>
          <creationTime>2021-02-04T22:26:46.076310Z</creationTime>
        </creationInfo>
      </pick>
      <amplitude publicID="smi:local/4be3d9a5-5563-4c90-b8df-1e9fba56f492">
        <genericAmplitude/>
        <type>P</type>
        <methodID>smi:local/spick_0.0.0</methodID>
        <timeWindow>
          <reference>2013-04-11T06:06:43.844292Z</reference>
          <begin>0.0</begin>
          <end>0.20526933670043945</end>
        </timeWindow>
        <pickID>smi:local/3d67bc8f-10fa-4eb7-96b5-3514be8bfca7</pickID>
        <evaluationMode>manual</evaluationMode>
        <evaluationStatus>reviewed</evaluationStatus>
        <creationInfo>
          <agencyID>NIOSH</agencyID>
          <author>DC</author>
          <creationTime>2021-02-04T22:26:46.074739Z</creationTime>
        </creationInfo>
      </amplitude>
      <amplitude publicID="smi:local/e8f74b26-5ff0-4c0a-9dda-38ba0758d01b">
        <genericAmplitude/>
        <type>P</type>
        <methodID>smi:local/spick_0.0.0</methodID>
        <timeWindow>
          <reference>2013-04-11T06:06:45.052929Z</reference>
          <begin>0.0</begin>
          <end>0.0989530086517334</end>
        </timeWindow>
        <pickID>smi:local/e6fcb76a-2624-4d88-b8de-7d255a69e6a1</pickID>
        <evaluationMode>manual</evaluationMode>
        <evaluationStatus>reviewed</evaluationStatus>
        <creationInfo>
          <agencyID>NIOSH</agencyID>
          <author>DC</author>
          <creationTime>2021-02-04T22:26:46.076013Z</creationTime>
        </creationInfo>
      </amplitude>
      <amplitude publicID="smi:local/3dbce9df-eb97-4a60-ae48-73abb34a40c4">
        <genericAmplitude/>
        <type>P</type>
        <methodID>smi:local/spick_0.0.0</methodID>
        <timeWindow>
          <reference>2013-04-11T06:06:45.203650Z</reference>
          <begin>0.0</begin>
          <end>0.3513960838317871</end>
        </timeWindow>
        <pickID>smi:local/f5fe8008-c1b1-4bd4-bc12-f68818940ce5</pickID>
        <evaluationMode>manual</evaluationMode>
        <evaluationStatus>reviewed</evaluationStatus>
        <creationInfo>
          <agencyID>NIOSH</agencyID>
          <author>DC</author>
          <creationTime>2021-02-04T22:26:46.076445Z</creationTime>
        </creationInfo>
      </amplitude>
    </event>
  </eventParameters>
</q:quakeml>
