<?xml version='1.0' encoding='utf-8'?>
<q:quakeml xmlns:q="http://quakeml.org/xmlns/quakeml/1.2" xmlns="http://quakeml.org/xmlns/bed/1.2">
  <eventParameters publicID="smi:local/11217bd2-a437-48dd-b3bf-3cdd4fbb7e65">
    <event publicID="smi:local/248843">
      <preferredOriginID>smi:local/404335</preferredOriginID>
      <description>
        <text>LR</text>
      </description>
      <creationInfo>
        <agencyID>NIOSH</agencyID>
        <author>DC</author>
        <creationTime>2018-10-10T20:33:27.110914Z</creationTime>
      </creationInfo>
      <origin publicID="smi:local/404334">
        <time>
          <value>2007-08-06T10:47:25.209550Z</value>
        </time>
        <latitude>
          <value>39.4348</value>
        </latitude>
        <longitude>
          <value>-111.2093</value>
        </longitude>
        <depth>
          <value>3306.0</value>
        </depth>
        <quality>
          <standardError>0.3717</standardError>
        </quality>
        <arrival publicID="smi:local/e69b0418-78d6-4735-93c3-911cf11a4941">
          <pickID>smi:local/21691706</pickID>
          <phase>P</phase>
          <azimuth>296.81</azimuth>
          <distance>0.389</distance>
          <timeResidual>0.41600000000000004</timeResidual>
          <timeWeight>-1.0</timeWeight>
        </arrival>
        <arrival publicID="smi:local/32cbc11c-205a-42e4-8d20-29e5aba289b0">
          <pickID>smi:local/21691707</pickID>
          <phase>P</phase>
          <azimuth>176.75</azimuth>
          <distance>0.518</distance>
          <timeResidual>-0.132</timeResidual>
          <timeWeight>-1.0</timeWeight>
        </arrival>
        <arrival publicID="smi:local/8aca5017-8995-4228-bf96-f487b11ce109">
          <pickID>smi:local/21691708</pickID>
          <phase>P</phase>
          <azimuth>121.19</azimuth>
          <distance>0.622</distance>
          <timeResidual>0.366</timeResidual>
          <timeWeight>-1.0</timeWeight>
        </arrival>
        <arrival publicID="smi:local/37771d48-fb0d-457e-9deb-4e8345aa84a7">
          <pickID>smi:local/21691709</pickID>
          <phase>S</phase>
          <azimuth>296.81</azimuth>
          <distance>0.389</distance>
          <timeResidual>-0.682</timeResidual>
          <timeWeight>-1.0</timeWeight>
        </arrival>
        <arrival publicID="smi:local/0e228551-37b5-449e-820f-e9f2b8ed64cb">
          <pickID>smi:local/21691710</pickID>
          <phase>P</phase>
          <azimuth>75.13</azimuth>
          <distance>0.768</distance>
          <timeResidual>0.21</timeResidual>
          <timeWeight>-1.0</timeWeight>
        </arrival>
        <arrival publicID="smi:local/0c36097f-a602-4356-8fb1-253cbf880e92">
          <pickID>smi:local/21691711</pickID>
          <phase>P</phase>
          <azimuth>279.7</azimuth>
          <distance>0.836</distance>
          <timeResidual>-0.532</timeResidual>
          <timeWeight>-1.0</timeWeight>
        </arrival>
        <arrival publicID="smi:local/96593051-b511-4c27-92d1-919482d5204d">
          <pickID>smi:local/21691712</pickID>
          <phase>S</phase>
          <azimuth>176.75</azimuth>
          <distance>0.518</distance>
          <timeResidual>-0.457</timeResidual>
          <timeWeight>-1.0</timeWeight>
        </arrival>
        <arrival publicID="smi:local/332ce0ad-5f31-48d9-8182-8605b2d81665">
          <pickID>smi:local/21691713</pickID>
          <phase>P</phase>
          <azimuth>111.4</azimuth>
          <distance>0.897</distance>
          <timeResidual>0.17600000000000002</timeResidual>
          <timeWeight>-1.0</timeWeight>
        </arrival>
        <arrival publicID="smi:local/57a936a5-be12-4dc1-96bc-f77646787847">
          <pickID>smi:local/21691715</pickID>
          <phase>P</phase>
          <azimuth>244.72</azimuth>
          <distance>1.006</distance>
          <timeResidual>-0.53</timeResidual>
          <timeWeight>-1.0</timeWeight>
        </arrival>
        <arrival publicID="smi:local/c4dcdcb4-9f92-4df9-851e-855f10717c75">
          <pickID>smi:local/21691717</pickID>
          <phase>P</phase>
          <azimuth>158.96</azimuth>
          <distance>1.088</distance>
          <timeResidual>-0.124</timeResidual>
          <timeWeight>-1.0</timeWeight>
        </arrival>
        <arrival publicID="smi:local/197c5f1b-14bb-4070-b003-2df2513dcea9">
          <pickID>smi:local/21691718</pickID>
          <phase>S</phase>
          <azimuth>121.19</azimuth>
          <distance>0.622</distance>
          <timeResidual>0.265</timeResidual>
          <timeWeight>-1.0</timeWeight>
        </arrival>
        <arrival publicID="smi:local/29516207-ead0-47a7-95c0-278b9d286d9e">
          <pickID>smi:local/21691719</pickID>
          <phase>P</phase>
          <azimuth>47.6</azimuth>
          <distance>1.2409999999999999</distance>
          <timeResidual>-0.33899999999999997</timeResidual>
          <timeWeight>-1.0</timeWeight>
        </arrival>
        <arrival publicID="smi:local/6a2d71a7-ee4e-48d0-9023-e5b5a54227a2">
          <pickID>smi:local/21691720</pickID>
          <phase>S</phase>
          <azimuth>75.13</azimuth>
          <distance>0.768</distance>
          <timeResidual>0.063</timeResidual>
          <timeWeight>-1.0</timeWeight>
        </arrival>
        <arrival publicID="smi:local/de088551-f981-4798-96f9-53c30fcd96e2">
          <pickID>smi:local/21691721</pickID>
          <phase>P</phase>
          <azimuth>302.19</azimuth>
          <distance>1.4480000000000002</distance>
          <timeResidual>-0.5710000000000001</timeResidual>
          <timeWeight>-1.0</timeWeight>
        </arrival>
        <arrival publicID="smi:local/01a72e1e-b132-4385-b215-f7d0ba3f0da8">
          <pickID>smi:local/21691722</pickID>
          <phase>P</phase>
          <azimuth>276.79</azimuth>
          <distance>1.443</distance>
          <timeResidual>-0.426</timeResidual>
          <timeWeight>-1.0</timeWeight>
        </arrival>
        <arrival publicID="smi:local/d765400b-c021-42ff-b29d-532e46442709">
          <pickID>smi:local/21691723</pickID>
          <phase>P</phase>
          <azimuth>135.28</azimuth>
          <distance>1.465</distance>
          <timeResidual>-0.026000000000000002</timeResidual>
          <timeWeight>-1.0</timeWeight>
        </arrival>
        <arrival publicID="smi:local/7ed4c7d0-7d97-4861-911d-b95d2e8f1dc8">
          <pickID>smi:local/21691724</pickID>
          <phase>P</phase>
          <azimuth>214.53</azimuth>
          <distance>1.48</distance>
          <timeResidual>-0.032</timeResidual>
          <timeWeight>-1.0</timeWeight>
        </arrival>
        <arrival publicID="smi:local/5a52d4e6-ca61-467f-841f-bef9785850a0">
          <pickID>smi:local/21691726</pickID>
          <phase>P</phase>
          <azimuth>10.66</azimuth>
          <distance>1.535</distance>
          <timeResidual>-0.016</timeResidual>
          <timeWeight>-1.0</timeWeight>
        </arrival>
        <arrival publicID="smi:local/acd32288-5bc7-4ef3-b640-4be03e6479bb">
          <pickID>smi:local/21691728</pickID>
          <phase>P</phase>
          <azimuth>107.02</azimuth>
          <distance>1.5830000000000002</distance>
          <timeResidual>0.45899999999999996</timeResidual>
          <timeWeight>-1.0</timeWeight>
        </arrival>
        <arrival publicID="smi:local/87e420f8-c4f9-4774-b173-a45ec3eb3d7e">
          <pickID>smi:local/21691729</pickID>
          <phase>P</phase>
          <azimuth>255.08</azimuth>
          <distance>1.663</distance>
          <timeResidual>0.37799999999999995</timeResidual>
          <timeWeight>-1.0</timeWeight>
        </arrival>
        <arrival publicID="smi:local/7f38ca6f-c317-4f65-9a07-2fb98f28c748">
          <pickID>smi:local/21691730</pickID>
          <phase>Pb</phase>
          <azimuth>190.13</azimuth>
          <distance>1.739</distance>
          <timeResidual>-0.086</timeResidual>
          <timeWeight>-1.0</timeWeight>
        </arrival>
        <arrival publicID="smi:local/f167d896-dbb1-49cc-a7cb-8710245231fa">
          <pickID>smi:local/21691731</pickID>
          <phase>S</phase>
          <azimuth>244.72</azimuth>
          <distance>1.006</distance>
          <timeResidual>0.095</timeResidual>
          <timeWeight>-1.0</timeWeight>
        </arrival>
        <arrival publicID="smi:local/3c600a20-ddd3-4283-81e0-df34f0d069ff">
          <pickID>smi:local/21691732</pickID>
          <phase>Pb</phase>
          <azimuth>169.83</azimuth>
          <distance>1.828</distance>
          <timeResidual>0.27</timeResidual>
          <timeWeight>-1.0</timeWeight>
        </arrival>
        <arrival publicID="smi:local/d020a518-9585-4555-a3b6-e4df284fdbe7">
          <pickID>smi:local/21691733</pickID>
          <phase>S</phase>
          <azimuth>158.96</azimuth>
          <distance>1.088</distance>
          <timeResidual>-0.53</timeResidual>
          <timeWeight>-1.0</timeWeight>
        </arrival>
        <arrival publicID="smi:local/ccd6cb69-4342-41f5-9928-b8cbaa0d9204">
          <pickID>smi:local/21691734</pickID>
          <phase>Pb</phase>
          <azimuth>126.38</azimuth>
          <distance>1.9</distance>
          <timeResidual>0.38</timeResidual>
          <timeWeight>-1.0</timeWeight>
        </arrival>
        <arrival publicID="smi:local/17ae79b7-8865-473f-b9ae-2192444309fd">
          <pickID>smi:local/21691735</pickID>
          <phase>Pb</phase>
          <azimuth>151.06</azimuth>
          <distance>1.986</distance>
          <timeResidual>-0.039</timeResidual>
          <timeWeight>-1.0</timeWeight>
        </arrival>
        <arrival publicID="smi:local/38b8d646-cec3-4097-adc0-759a77d48ca5">
          <pickID>smi:local/21691736</pickID>
          <phase>S</phase>
          <azimuth>47.6</azimuth>
          <distance>1.2409999999999999</distance>
          <timeResidual>-0.853</timeResidual>
          <timeWeight>-1.0</timeWeight>
        </arrival>
        <arrival publicID="smi:local/3597540a-a3b0-4849-9b65-bcbb50d6d419">
          <pickID>smi:local/21691737</pickID>
          <phase>Pb</phase>
          <azimuth>135.54</azimuth>
          <distance>2.34</distance>
          <timeResidual>-0.005</timeResidual>
          <timeWeight>-1.0</timeWeight>
        </arrival>
        <arrival publicID="smi:local/fadb3d8b-0c57-42ea-91f3-ad3abeaa084f">
          <pickID>smi:local/21691738</pickID>
          <phase>Pb</phase>
          <azimuth>172.43</azimuth>
          <distance>2.459</distance>
          <timeResidual>-0.201</timeResidual>
          <timeWeight>-1.0</timeWeight>
        </arrival>
        <arrival publicID="smi:local/633933c9-9515-4bf0-b1e4-75495815fff9">
          <pickID>smi:local/21691739</pickID>
          <phase>Pb</phase>
          <azimuth>185.53</azimuth>
          <distance>2.4619999999999997</distance>
          <timeResidual>0.046</timeResidual>
          <timeWeight>-1.0</timeWeight>
        </arrival>
        <arrival publicID="smi:local/e1ddc22f-c043-4952-9b6b-534d2481cf50">
          <pickID>smi:local/21691740</pickID>
          <phase>Pb</phase>
          <azimuth>240.61</azimuth>
          <distance>2.49</distance>
          <timeResidual>0.002</timeResidual>
          <timeWeight>-1.0</timeWeight>
        </arrival>
        <arrival publicID="smi:local/9acef7aa-6386-4edc-bf27-d749f970bde4">
          <pickID>smi:local/21691741</pickID>
          <phase>Pb</phase>
          <azimuth>155.07</azimuth>
          <distance>2.526</distance>
          <timeResidual>-0.512</timeResidual>
          <timeWeight>-1.0</timeWeight>
        </arrival>
        <arrival publicID="smi:local/6d6c94c2-5b7c-499e-9301-c96f416cc771">
          <pickID>smi:local/21691743</pickID>
          <phase>S</phase>
          <azimuth>276.79</azimuth>
          <distance>1.443</distance>
          <timeResidual>-0.723</timeResidual>
          <timeWeight>-1.0</timeWeight>
        </arrival>
        <arrival publicID="smi:local/a0f867a8-04b1-488d-bf16-18aa5f6972ad">
          <pickID>smi:local/21691744</pickID>
          <phase>S</phase>
          <azimuth>135.28</azimuth>
          <distance>1.465</distance>
          <timeResidual>-0.494</timeResidual>
          <timeWeight>-1.0</timeWeight>
        </arrival>
        <arrival publicID="smi:local/519e3821-3886-4751-99d7-251afb89f65d">
          <pickID>smi:local/21691745</pickID>
          <phase>Pb</phase>
          <azimuth>322.51</azimuth>
          <distance>2.6310000000000002</distance>
          <timeResidual>0.258</timeResidual>
          <timeWeight>-1.0</timeWeight>
        </arrival>
        <arrival publicID="smi:local/f2668c04-e7d4-4151-8983-c0430056828f">
          <pickID>smi:local/21691746</pickID>
          <phase>S</phase>
          <azimuth>214.53</azimuth>
          <distance>1.48</distance>
          <timeResidual>0.21100000000000002</timeResidual>
          <timeWeight>-1.0</timeWeight>
        </arrival>
        <arrival publicID="smi:local/3f2a5921-8a48-4d14-8c32-ea9093f24aac">
          <pickID>smi:local/21691748</pickID>
          <phase>S</phase>
          <azimuth>107.02</azimuth>
          <distance>1.5830000000000002</distance>
          <timeResidual>-0.071</timeResidual>
          <timeWeight>-1.0</timeWeight>
        </arrival>
        <arrival publicID="smi:local/6012d2c0-b0a3-4d84-b90d-b8d19b9af9c1">
          <pickID>smi:local/21691749</pickID>
          <phase>S</phase>
          <azimuth>190.13</azimuth>
          <distance>1.739</distance>
          <timeResidual>-0.40399999999999997</timeResidual>
          <timeWeight>-1.0</timeWeight>
        </arrival>
        <arrival publicID="smi:local/9f11b33d-d685-4b53-987b-f3318c86598f">
          <pickID>smi:local/21691751</pickID>
          <phase>Pb</phase>
          <azimuth>196.18</azimuth>
          <distance>3.1260000000000003</distance>
          <timeResidual>0.079</timeResidual>
          <timeWeight>-1.0</timeWeight>
        </arrival>
        <arrival publicID="smi:local/b93d105c-13f1-4438-8073-70b36018663c">
          <pickID>smi:local/21691752</pickID>
          <phase>S</phase>
          <azimuth>169.83</azimuth>
          <distance>1.828</distance>
          <timeResidual>0.61</timeResidual>
          <timeWeight>-1.0</timeWeight>
        </arrival>
        <arrival publicID="smi:local/ca79db69-8674-4ddd-9256-919a48270e85">
          <pickID>smi:local/21691754</pickID>
          <phase>Sb</phase>
          <azimuth>151.06</azimuth>
          <distance>1.986</distance>
          <timeResidual>-0.08</timeResidual>
          <timeWeight>-1.0</timeWeight>
        </arrival>
        <arrival publicID="smi:local/55c72097-d5ba-4857-b907-efcccf3efc68">
          <pickID>smi:local/21691756</pickID>
          <phase>Sb</phase>
          <azimuth>135.54</azimuth>
          <distance>2.34</distance>
          <timeResidual>-0.18899999999999997</timeResidual>
          <timeWeight>-1.0</timeWeight>
        </arrival>
        <arrival publicID="smi:local/56cfef10-6fbb-4e6c-8b54-05cc9ba0a6f3">
          <pickID>smi:local/21691757</pickID>
          <phase>Sb</phase>
          <azimuth>172.43</azimuth>
          <distance>2.459</distance>
          <timeResidual>-0.5329999999999999</timeResidual>
          <timeWeight>-1.0</timeWeight>
        </arrival>
        <arrival publicID="smi:local/84f14aa0-1980-45a3-846c-11ff1c0c97c0">
          <pickID>smi:local/21691758</pickID>
          <phase>Sb</phase>
          <azimuth>185.53</azimuth>
          <distance>2.4619999999999997</distance>
          <timeResidual>-0.252</timeResidual>
          <timeWeight>-1.0</timeWeight>
        </arrival>
        <arrival publicID="smi:local/d760e000-ea1a-4fa0-b256-f3457e84e633">
          <pickID>smi:local/21691760</pickID>
          <phase>Sb</phase>
          <azimuth>155.07</azimuth>
          <distance>2.526</distance>
          <timeResidual>-0.37</timeResidual>
          <timeWeight>-1.0</timeWeight>
        </arrival>
        <arrival publicID="smi:local/6ba2729d-9051-473a-8634-da847611cae5">
          <pickID>smi:local/21691761</pickID>
          <phase>Sb</phase>
          <azimuth>171.19</azimuth>
          <distance>2.8680000000000003</distance>
          <timeResidual>0.10800000000000001</timeResidual>
          <timeWeight>-1.0</timeWeight>
        </arrival>
        <arrival publicID="smi:local/3b03e0c8-7aa2-4ab3-9d38-f0b3e63c3d7b">
          <pickID>smi:local/21691763</pickID>
          <phase>Sb</phase>
          <azimuth>135.44</azimuth>
          <distance>3.077</distance>
          <timeResidual>-0.302</timeResidual>
          <timeWeight>-1.0</timeWeight>
        </arrival>
        <arrival publicID="smi:local/7d9b1681-12d2-4ea5-bad5-d88d107367fc">
          <pickID>smi:local/21691764</pickID>
          <phase>Sb</phase>
          <azimuth>196.18</azimuth>
          <distance>3.1260000000000003</distance>
          <timeResidual>-0.5710000000000001</timeResidual>
          <timeWeight>-1.0</timeWeight>
        </arrival>
      </origin>
      <origin publicID="smi:local/404335">
        <time>
          <value>2007-08-06T10:47:25.600000Z</value>
        </time>
        <latitude>
          <value>39.4615</value>
        </latitude>
        <longitude>
          <value>-111.2317</value>
        </longitude>
        <depth>
          <value>2050.0</value>
        </depth>
        <quality>
          <standardError>0.8237</standardError>
        </quality>
        <arrival publicID="smi:local/c55c36c0-87d9-4d96-97ce-f288314acbb9">
          <pickID>smi:local/21691706</pickID>
          <phase>Pg</phase>
          <azimuth>294.25</azimuth>
          <distance>0.361</distance>
          <timeResidual>0.7440000000000001</timeResidual>
          <timeWeight>-1.0</timeWeight>
        </arrival>
        <arrival publicID="smi:local/f992b8d9-42c2-48b1-a9e2-65ec2e4fe51f">
          <pickID>smi:local/21691707</pickID>
          <phase>Pg</phase>
          <azimuth>175.09</azimuth>
          <distance>0.546</distance>
          <timeResidual>-0.848</timeResidual>
          <timeWeight>-1.0</timeWeight>
        </arrival>
        <arrival publicID="smi:local/5c7f769a-b7be-4b7f-9e77-f6d7080e6438">
          <pickID>smi:local/21691708</pickID>
          <phase>Pg</phase>
          <azimuth>122.4</azimuth>
          <distance>0.6509999999999999</distance>
          <timeResidual>-0.377</timeResidual>
          <timeWeight>-1.0</timeWeight>
        </arrival>
        <arrival publicID="smi:local/0d3df940-43ea-4dd7-abbd-17a3b80c4870">
          <pickID>smi:local/21691709</pickID>
          <phase>Sg</phase>
          <azimuth>294.25</azimuth>
          <distance>0.361</distance>
          <timeResidual>0.20800000000000002</timeResidual>
          <timeWeight>-1.0</timeWeight>
        </arrival>
        <arrival publicID="smi:local/8b90e22d-ff34-4d0c-90e1-254031a1621f">
          <pickID>smi:local/21691710</pickID>
          <phase>Pg</phase>
          <azimuth>77.34</azimuth>
          <distance>0.778</distance>
          <timeResidual>-0.098</timeResidual>
          <timeWeight>-1.0</timeWeight>
        </arrival>
        <arrival publicID="smi:local/b7cfd290-f1db-4256-be84-eae823645291">
          <pickID>smi:local/21691711</pickID>
          <phase>Pg</phase>
          <azimuth>278.04</azimuth>
          <distance>0.815</distance>
          <timeResidual>-0.355</timeResidual>
          <timeWeight>-1.0</timeWeight>
        </arrival>
        <arrival publicID="smi:local/77dd9b33-48fd-4ea2-9277-a22b2fdd9ffa">
          <pickID>smi:local/21691712</pickID>
          <phase>Sg</phase>
          <azimuth>175.09</azimuth>
          <distance>0.546</distance>
          <timeResidual>-1.374</timeResidual>
          <timeWeight>-1.0</timeWeight>
        </arrival>
        <arrival publicID="smi:local/eb923b07-9ea5-46a5-8988-67b9b7e1835f">
          <pickID>smi:local/21691713</pickID>
          <phase>Pg</phase>
          <azimuth>112.53</azimuth>
          <distance>0.9229999999999999</distance>
