<?xml version='1.0' encoding='utf-8'?>
<q:quakeml xmlns:q="http://quakeml.org/xmlns/quakeml/1.2" xmlns="http://quakeml.org/xmlns/bed/1.2">
  <eventParameters publicID="smi:local/a414cdb0-b4eb-4be8-8a0a-fd7cb323083a">
    <event publicID="smi:local/248828">
      <preferredOriginID>smi:local/404311</preferredOriginID>
      <description>
        <text>LR</text>
      </description>
      <creationInfo>
        <agencyID>NIOSH</agencyID>
        <author>DC</author>
        <creationTime>2018-10-10T20:26:49.642650Z</creationTime>
      </creationInfo>
      <origin publicID="smi:local/404310">
        <time>
          <value>2007-08-06T01:44:48.608600Z</value>
        </time>
        <latitude>
          <value>39.4422</value>
        </latitude>
        <longitude>
          <value>-111.1979</value>
        </longitude>
        <depth>
          <value>12889.0</value>
        </depth>
        <quality>
          <standardError>0.3637</standardError>
        </quality>
        <arrival publicID="smi:local/6a71667a-1d56-4420-842f-449c35ee2f62">
          <pickID>smi:local/21690511</pickID>
          <phase>P</phase>
          <azimuth>84.88</azimuth>
          <distance>0.355</distance>
          <timeResidual>-0.092</timeResidual>
          <timeWeight>-1.0</timeWeight>
        </arrival>
        <arrival publicID="smi:local/2038b04e-d5bd-42a8-88ed-cd01f3ee983a">
          <pickID>smi:local/21690512</pickID>
          <phase>P</phase>
          <azimuth>295.27</azimuth>
          <distance>0.39299999999999996</distance>
          <timeResidual>-0.1</timeResidual>
          <timeWeight>-1.0</timeWeight>
        </arrival>
        <arrival publicID="smi:local/c856e454-cc2c-4a01-9d55-7a1d96cab052">
          <pickID>smi:local/21690513</pickID>
          <phase>P</phase>
          <azimuth>177.77</azimuth>
          <distance>0.525</distance>
          <timeResidual>-0.146</timeResidual>
          <timeWeight>-1.0</timeWeight>
        </arrival>
        <arrival publicID="smi:local/edafe686-55d3-4c1c-bfec-aaccda71cf9d">
          <pickID>smi:local/21690514</pickID>
          <phase>P</phase>
          <azimuth>122.21</azimuth>
          <distance>0.618</distance>
          <timeResidual>-0.019</timeResidual>
          <timeWeight>-1.0</timeWeight>
        </arrival>
        <arrival publicID="smi:local/b2d4defe-b6a0-4989-bf59-705591a4e846">
          <pickID>smi:local/21690515</pickID>
          <phase>S</phase>
          <azimuth>84.88</azimuth>
          <distance>0.355</distance>
          <timeResidual>0.35700000000000004</timeResidual>
          <timeWeight>-1.0</timeWeight>
        </arrival>
        <arrival publicID="smi:local/476d69d8-5739-412f-912d-184827b950e3">
          <pickID>smi:local/21690516</pickID>
          <phase>P</phase>
          <azimuth>75.51</azimuth>
          <distance>0.758</distance>
          <timeResidual>0.055999999999999994</timeResidual>
          <timeWeight>-1.0</timeWeight>
        </arrival>
        <arrival publicID="smi:local/c555f236-538c-4226-a611-952c89577029">
          <pickID>smi:local/21690517</pickID>
          <phase>P</phase>
          <azimuth>279.11</azimuth>
          <distance>0.8440000000000001</distance>
          <timeResidual>-0.08199999999999999</timeResidual>
          <timeWeight>-1.0</timeWeight>
        </arrival>
        <arrival publicID="smi:local/85d6dabc-ecc6-4f24-b970-5eb79336fc8f">
          <pickID>smi:local/21690518</pickID>
          <phase>P</phase>
          <azimuth>112.06</azimuth>
          <distance>0.892</distance>
          <timeResidual>0.012</timeResidual>
          <timeWeight>-1.0</timeWeight>
        </arrival>
        <arrival publicID="smi:local/765d6111-23f0-4469-b56a-75e68565cfe5">
          <pickID>smi:local/21690519</pickID>
          <phase>S</phase>
          <azimuth>177.77</azimuth>
          <distance>0.525</distance>
          <timeResidual>0.305</timeResidual>
          <timeWeight>-1.0</timeWeight>
        </arrival>
        <arrival publicID="smi:local/0180fc20-fce5-44de-9230-2377b50618f7">
          <pickID>smi:local/21690520</pickID>
          <phase>P</phase>
          <azimuth>159.54</azimuth>
          <distance>1.092</distance>
          <timeResidual>-0.207</timeResidual>
          <timeWeight>-1.0</timeWeight>
        </arrival>
        <arrival publicID="smi:local/7ea4d2e8-128d-4886-84f4-c8fdfb51764f">
          <pickID>smi:local/21690521</pickID>
          <phase>S</phase>
          <azimuth>122.21</azimuth>
          <distance>0.618</distance>
          <timeResidual>-0.062</timeResidual>
          <timeWeight>-1.0</timeWeight>
        </arrival>
        <arrival publicID="smi:local/388c0f0e-fccb-4025-abdb-06d85d5e1dfd">
          <pickID>smi:local/21690522</pickID>
          <phase>Pb</phase>
          <azimuth>311.07</azimuth>
          <distance>1.287</distance>
          <timeResidual>0.225</timeResidual>
          <timeWeight>-1.0</timeWeight>
        </arrival>
        <arrival publicID="smi:local/ef965921-1f49-45ca-a882-95976b8359e1">
          <pickID>smi:local/21690523</pickID>
          <phase>S</phase>
          <azimuth>75.51</azimuth>
          <distance>0.758</distance>
          <timeResidual>-0.146</timeResidual>
          <timeWeight>-1.0</timeWeight>
        </arrival>
        <arrival publicID="smi:local/205cda0c-5301-4458-b415-98d232181f68">
          <pickID>smi:local/21690524</pickID>
          <phase>Pb</phase>
          <azimuth>301.76</azimuth>
          <distance>1.4509999999999998</distance>
          <timeResidual>-0.18</timeResidual>
          <timeWeight>-1.0</timeWeight>
        </arrival>
        <arrival publicID="smi:local/25c5fcd5-5645-4025-aa2c-15c026a8db7a">
          <pickID>smi:local/21690525</pickID>
          <phase>Pb</phase>
          <azimuth>276.46</azimuth>
          <distance>1.4509999999999998</distance>
          <timeResidual>-0.212</timeResidual>
          <timeWeight>-1.0</timeWeight>
        </arrival>
        <arrival publicID="smi:local/882660d4-7086-46d3-a438-106cdcbad4a4">
          <pickID>smi:local/21690526</pickID>
          <phase>Pb</phase>
          <azimuth>135.74</azimuth>
          <distance>1.464</distance>
          <timeResidual>0.218</timeResidual>
          <timeWeight>-1.0</timeWeight>
        </arrival>
        <arrival publicID="smi:local/b01d70ee-ed10-43a2-9c41-95b0359a73bb">
          <pickID>smi:local/21690528</pickID>
          <phase>S</phase>
          <azimuth>112.06</azimuth>
          <distance>0.892</distance>
          <timeResidual>-0.845</timeResidual>
          <timeWeight>-1.0</timeWeight>
        </arrival>
        <arrival publicID="smi:local/1b018b96-1a84-409c-add6-ed5af725b603">
          <pickID>smi:local/21690529</pickID>
          <phase>Pb</phase>
          <azimuth>107.38</azimuth>
          <distance>1.577</distance>
          <timeResidual>0.434</timeResidual>
          <timeWeight>-1.0</timeWeight>
        </arrival>
        <arrival publicID="smi:local/c6645c75-38b7-418c-9a72-2be85cd62894">
          <pickID>smi:local/21690530</pickID>
          <phase>Pb</phase>
          <azimuth>254.92</azimuth>
          <distance>1.6740000000000002</distance>
          <timeResidual>-0.20600000000000002</timeResidual>
          <timeWeight>-1.0</timeWeight>
        </arrival>
        <arrival publicID="smi:local/1164fbbb-92cf-48ae-bea1-f4ae8c008c69">
          <pickID>smi:local/21690531</pickID>
          <phase>Pb</phase>
          <azimuth>190.38</azimuth>
          <distance>1.7480000000000002</distance>
          <timeResidual>0.083</timeResidual>
          <timeWeight>-1.0</timeWeight>
        </arrival>
        <arrival publicID="smi:local/a54c64e5-9501-42e6-8dec-b3a0ea43a15a">
          <pickID>smi:local/21690533</pickID>
          <phase>S</phase>
          <azimuth>159.54</azimuth>
          <distance>1.092</distance>
          <timeResidual>-1.254</timeResidual>
          <timeWeight>-1.0</timeWeight>
        </arrival>
        <arrival publicID="smi:local/01910535-38b3-4811-98e9-628c260aa803">
          <pickID>smi:local/21690535</pickID>
          <phase>Pb</phase>
          <azimuth>151.39</azimuth>
          <distance>1.989</distance>
          <timeResidual>0.24600000000000002</timeResidual>
          <timeWeight>-1.0</timeWeight>
        </arrival>
        <arrival publicID="smi:local/5fc16dc2-a069-45a9-903b-30fadf84cd28">
          <pickID>smi:local/21690536</pickID>
          <phase>Pb</phase>
          <azimuth>135.83</azimuth>
          <distance>2.34</distance>
          <timeResidual>-0.006999999999999999</timeResidual>
          <timeWeight>-1.0</timeWeight>
        </arrival>
        <arrival publicID="smi:local/1858ad82-79b6-4f2c-95a2-c8c365c19cf0">
          <pickID>smi:local/21690537</pickID>
          <phase>Pb</phase>
          <azimuth>172.67</azimuth>
          <distance>2.465</distance>
          <timeResidual>0.012</timeResidual>
          <timeWeight>-1.0</timeWeight>
        </arrival>
        <arrival publicID="smi:local/2eb2abd4-326f-4d3b-9107-6ac8d50a5959">
          <pickID>smi:local/21690538</pickID>
          <phase>Pb</phase>
          <azimuth>155.33</azimuth>
          <distance>2.529</distance>
          <timeResidual>-0.486</timeResidual>
          <timeWeight>-1.0</timeWeight>
        </arrival>
        <arrival publicID="smi:local/aa0168c5-13f3-4f2a-a301-4a0de20f9213">
          <pickID>smi:local/21690539</pickID>
          <phase>Pb</phase>
          <azimuth>240.57</azimuth>
          <distance>2.501</distance>
          <timeResidual>0.292</timeResidual>
          <timeWeight>-1.0</timeWeight>
        </arrival>
        <arrival publicID="smi:local/2ca9f80b-3208-4581-86db-0a26b213a965">
          <pickID>smi:local/21690541</pickID>
          <phase>Pb</phase>
          <azimuth>196.31</azimuth>
          <distance>3.135</distance>
          <timeResidual>0.561</timeResidual>
          <timeWeight>-1.0</timeWeight>
        </arrival>
        <arrival publicID="smi:local/be405e88-77a5-4ff1-bcdd-a4cfb12ad03e">
          <pickID>smi:local/21690543</pickID>
          <phase>Sb</phase>
          <azimuth>151.39</azimuth>
          <distance>1.989</distance>
          <timeResidual>0.428</timeResidual>
          <timeWeight>-1.0</timeWeight>
        </arrival>
        <arrival publicID="smi:local/70e37eec-73e9-4dbd-a727-b938b2244922">
          <pickID>smi:local/21690545</pickID>
          <phase>Sb</phase>
          <azimuth>135.83</azimuth>
          <distance>2.34</distance>
          <timeResidual>0.475</timeResidual>
          <timeWeight>-1.0</timeWeight>
        </arrival>
        <arrival publicID="smi:local/8ff8ef77-b07b-4881-af92-9be8619b5150">
          <pickID>smi:local/21690546</pickID>
          <phase>Sb</phase>
          <azimuth>172.67</azimuth>
          <distance>2.465</distance>
          <timeResidual>0.09</timeResidual>
          <timeWeight>-1.0</timeWeight>
        </arrival>
        <arrival publicID="smi:local/c710c14e-143a-4727-8904-daa1649af882">
          <pickID>smi:local/21690547</pickID>
          <phase>Sb</phase>
          <azimuth>155.33</azimuth>
          <distance>2.529</distance>
          <timeResidual>-0.282</timeResidual>
          <timeWeight>-1.0</timeWeight>
        </arrival>
        <arrival publicID="smi:local/c1a99a6d-559a-4438-90ac-cc947737f302">
          <pickID>smi:local/21690548</pickID>
          <phase>Sb</phase>
          <azimuth>135.66</azimuth>
          <distance>3.076</distance>
          <timeResidual>0.408</timeResidual>
          <timeWeight>-1.0</timeWeight>
        </arrival>
        <arrival publicID="smi:local/811c90cb-985f-4e92-9e88-4c388ea22ce2">
          <pickID>smi:local/21690549</pickID>
          <phase>Sb</phase>
          <azimuth>196.31</azimuth>
          <distance>3.135</distance>
          <timeResidual>0.019</timeResidual>
          <timeWeight>-1.0</timeWeight>
        </arrival>
        <arrival publicID="smi:local/45aef279-610e-48f0-aff7-305c0ccee34d">
          <pickID>smi:local/21690552</pickID>
          <phase>Sb</phase>
          <azimuth>179.04</azimuth>
          <distance>3.3</distance>
          <timeResidual>0.313</timeResidual>
          <timeWeight>-1.0</timeWeight>
        </arrival>
      </origin>
      <origin publicID="smi:local/404311">
        <time>
          <value>2007-08-06T01:44:48.810000Z</value>
        </time>
        <latitude>
          <value>39.4617</value>
        </latitude>
        <longitude>
          <value>-111.2378</value>
        </longitude>
        <depth>
          <value>6570.0</value>
        </depth>
        <quality>
          <standardError>0.8936</standardError>
        </quality>
        <arrival publicID="smi:local/e758cdd2-3f38-4a8d-a57c-d89721a0de91">
          <pickID>smi:local/21690511</pickID>
          <phase>Pg</phase>
          <azimuth>88.16</azimuth>
          <distance>0.384</distance>
          <timeResidual>-0.401</timeResidual>
          <timeWeight>-1.0</timeWeight>
        </arrival>
        <arrival publicID="smi:local/b6a6c8f6-f0cb-4a07-b5de-36cf54fe2a49">
          <pickID>smi:local/21690512</pickID>
          <phase>Pg</phase>
          <azimuth>294.53</azimuth>
          <distance>0.35700000000000004</distance>
          <timeResidual>0.821</timeResidual>
          <timeWeight>-1.0</timeWeight>
        </arrival>
        <arrival publicID="smi:local/2c80ecaf-96be-4113-b84d-699b06e7c18e">
          <pickID>smi:local/21690513</pickID>
          <phase>Pg</phase>
          <azimuth>174.59</azimuth>
          <distance>0.547</distance>
          <timeResidual>-0.373</timeResidual>
          <timeWeight>-1.0</timeWeight>
        </arrival>
        <arrival publicID="smi:local/34d1706b-61db-4f35-bc5c-0080abd84fe9">
          <pickID>smi:local/21690514</pickID>
          <phase>Pg</phase>
          <azimuth>122.19</azimuth>
          <distance>0.655</distance>
          <timeResidual>-0.564</timeResidual>
          <timeWeight>-1.0</timeWeight>
        </arrival>
        <arrival publicID="smi:local/aa70c09e-e0c6-4bcd-b36f-4b1e0facbbf2">
          <pickID>smi:local/21690515</pickID>
          <phase>Sg</phase>
          <azimuth>88.16</azimuth>
          <distance>0.384</distance>
          <timeResidual>-0.016</timeResidual>
          <timeWeight>-1.0</timeWeight>
        </arrival>
        <arrival publicID="smi:local/8217087a-a382-453f-ba7e-80ba6db0cb89">
          <pickID>smi:local/21690516</pickID>
          <phase>Pg</phase>
          <azimuth>77.43</azimuth>
          <distance>0.7829999999999999</distance>
          <timeResidual>-0.207</timeResidual>
          <timeWeight>-1.0</timeWeight>
        </arrival>
        <arrival publicID="smi:local/13916c10-7d85-4268-809b-4c70315ca114">
          <pickID>smi:local/21690517</pickID>
          <phase>Pb</phase>
          <azimuth>278.07</azimuth>
          <distance>0.81</distance>
          <timeResidual>-0.239</timeResidual>
          <timeWeight>-1.0</timeWeight>
        </arrival>
        <arrival publicID="smi:local/9fb3bcde-7cea-425b-aca7-4bad76d63d84">
          <pickID>smi:local/21690518</pickID>
          <phase>Pg</phase>
          <azimuth>112.43</azimuth>
          <distance>0.9279999999999999</distance>
          <timeResidual>-0.679</timeResidual>
          <timeWeight>-1.0</timeWeight>
        </arrival>
        <arrival publicID="smi:local/6d3f8b1f-7b76-48d6-9938-9d90a70a2988">
          <pickID>smi:local/21690519</pickID>
          <phase>Sg</phase>
          <azimuth>174.59</azimuth>
          <distance>0.547</distance>
          <timeResidual>0.113</timeResidual>
          <timeWeight>-1.0</timeWeight>
        </arrival>
        <arrival publicID="smi:local/ca2d0138-b2f8-48da-9aea-ddc69b098d3e">
          <pickID>smi:local/21690520</pickID>
          <phase>Pg</phase>
          <azimuth>158.38</azimuth>
          <distance>1.121</distance>
          <timeResidual>-1.012</timeResidual>
          <timeWeight>-1.0</timeWeight>
        </arrival>
        <arrival publicID="smi:local/83a56c16-9e88-4862-8581-8e2ed8597539">
          <pickID>smi:local/21690521</pickID>
          <phase>Sg</phase>
          <azimuth>122.19</azimuth>
          <distance>0.655</distance>
          <timeResidual>-0.802</timeResidual>
          <timeWeight>-1.0</timeWeight>
        </arrival>
        <arrival publicID="smi:local/98f1f61d-72ee-4436-afcc-b01463e61523">
          <pickID>smi:local/21690522</pickID>
          <phase>Pg</phase>
          <azimuth>311.3</azimuth>
          <distance>1.251</distance>
          <timeResidual>0.302</timeResidual>
          <timeWeight>-1.0</timeWeight>
        </arrival>
        <arrival publicID="smi:local/b607af4a-a2f9-4373-bce1-4b468d0450e7">
          <pickID>smi:local/21690523</pickID>
          <phase>Sg</phase>
          <azimuth>77.43</azimuth>
          <distance>0.7829999999999999</distance>
          <timeResidual>-0.382</timeResidual>
          <timeWeight>-1.0</timeWeight>
        </arrival>
        <arrival publicID="smi:local/0419e934-b4ec-4b38-964b-abbee30fe196">
          <pickID>smi:local/21690524</pickID>
          <phase>Pb</phase>
          <azimuth>301.72</azimuth>
          <distance>1.415</distance>
          <timeResidual>-0.065</timeResidual>
          <timeWeight>-1.0</timeWeight>
        </arrival>
        <arrival publicID="smi:local/0bd89eba-d15f-4b0f-8677-44b254cef0ad">
          <pickID>smi:local/21690525</pickID>
          <phase>Pb</phase>
          <azimuth>275.8</azimuth>
          <distance>1.4180000000000001</distance>
          <timeResidual>-0.121</timeResidual>
          <timeWeight>-1.0</timeWeight>
        </arrival>
        <arrival publicID="smi:local/42e78c8d-e2d0-451d-8e0a-358954b3465b">
          <pickID>smi:local/21690526</pickID>
          <phase>Pn</phase>
          <azimuth>135.39</azimuth>
          <distance>1.5</distance>
          <timeResidual>-0.015</timeResidual>
          <timeWeight>-1.0</timeWeight>
        </arrival>
        <arrival publicID="smi:local/be992e30-3fe9-4bf5-9aee-2c45aae43617">
          <pickID>smi:local/21690528</pickID>
          <phase>Sg</phase>
          <azimuth>112.43</azimuth>
          <distance>0.9279999999999999</distance>
          <timeResidual>-1.8359999999999999</timeResidual>
          <timeWeight>-1.0</timeWeight>
        </arrival>
        <arrival publicID="smi:local/5893ce15-370d-4910-81dd-5e0232629b02">
          <pickID>smi:local/21690529</pickID>
          <phase>Pn</phase>
          <azimuth>107.69</azimuth>
          <distance>1.6119999999999999</distance>
          <timeResidual>0.504</timeResidual>
          <timeWeight>-1.0</timeWeight>
        </arrival>
        <arrival publicID="smi:local/5e4f26c0-6069-4572-b0cc-25854d12665d">
          <pickID>smi:local/21690530</pickID>
          <phase>Pb</phase>
          <azimuth>253.96</azimuth>
          <distance>1.649</distance>
          <timeResidual>-0.298</timeResidual>
          <timeWeight>-1.0</timeWeight>
        </arrival>
        <arrival publicID="smi:local/ea056203-d6e1-40fd-9512-7bb5887ea617">
          <pickID>smi:local/21690531</pickID>
          <phase>pPn</phase>
          <azimuth>189.26</azimuth>
          <distance>1.7619999999999998</distance>
          <timeResidual>-0.501</timeResidual>
          <timeWeight>-1.0</timeWeight>
        </arrival>
        <arrival publicID="smi:local/8bfe3a85-20ab-4bae-aad4-9450598b44a3">
          <pickID>smi:local/21690533</pickID>
          <phase>Sg</phase>
          <azimuth>158.38</azimuth>
          <distance>1.121</distance>
          <timeResidual>-2.417</timeResidual>
          <timeWeight>-1.0</timeWeight>
        </arrival>
        <arrival publicID="smi:local/d00cc04e-b571-46bc-852e-b03e67cdec06">
          <pickID>smi:local/21690535</pickID>
          <phase>pPn</phase>
          <azimuth>150.86</azimuth>
          <distance>2.02</distance>
          <timeResidual>0.28</timeResidual>
          <timeWeight>-1.0</timeWeight>
