<?xml version='1.0' encoding='utf-8'?>
<q:quakeml xmlns:q="http://quakeml.org/xmlns/quakeml/1.2" xmlns="http://quakeml.org/xmlns/bed/1.2">
  <eventParameters publicID="smi:local/84a2135f-22ed-433f-9938-3a4b7f3e14a3">
    <event publicID="smi:local/248839">
      <preferredOriginID>smi:local/404329</preferredOriginID>
      <description>
        <text>LR</text>
      </description>
      <creationInfo>
        <agencyID>NIOSH</agencyID>
        <author>DC</author>
        <creationTime>2018-10-10T20:33:13.618111Z</creationTime>
      </creationInfo>
      <origin publicID="smi:local/404328">
        <time>
          <value>2007-08-06T08:48:40.000000Z</value>
        </time>
        <latitude>
          <value>39.465</value>
        </latitude>
        <longitude>
          <value>-111.237</value>
        </longitude>
        <depth>
          <value>1600.0</value>
        </depth>
        <quality>
          <standardError>1.6668</standardError>
        </quality>
        <arrival publicID="smi:local/6a7f7180-21e5-4bbf-9a4e-20755d212437">
          <pickID>smi:local/21691352</pickID>
          <phase>Pg</phase>
          <azimuth>88.65</azimuth>
          <distance>0.384</distance>
          <timeResidual>0.258</timeResidual>
          <timeWeight>-1.0</timeWeight>
        </arrival>
        <arrival publicID="smi:local/5e517baf-02ec-4a33-9225-7233dc109628">
          <pickID>smi:local/21691353</pickID>
          <phase>Pg</phase>
          <azimuth>294.01</azimuth>
          <distance>0.35600000000000004</distance>
          <timeResidual>1.334</timeResidual>
          <timeWeight>-1.0</timeWeight>
        </arrival>
        <arrival publicID="smi:local/83a9d3ca-415d-470b-93bb-34677e9f64af">
          <pickID>smi:local/21691354</pickID>
          <phase>Pg</phase>
          <azimuth>174.69</azimuth>
          <distance>0.55</distance>
          <timeResidual>0.158</timeResidual>
          <timeWeight>-1.0</timeWeight>
        </arrival>
        <arrival publicID="smi:local/6593b4e2-8cd1-4ea0-85d7-7c67a0759a3d">
          <pickID>smi:local/21691355</pickID>
          <phase>Sg</phase>
          <azimuth>88.65</azimuth>
          <distance>0.384</distance>
          <timeResidual>-1.695</timeResidual>
          <timeWeight>-1.0</timeWeight>
        </arrival>
        <arrival publicID="smi:local/7ee1ae58-d3aa-442c-ad1e-ca2bd9ca56d8">
          <pickID>smi:local/21691356</pickID>
          <phase>Sg</phase>
          <azimuth>294.01</azimuth>
          <distance>0.35600000000000004</distance>
          <timeResidual>0.038</timeResidual>
          <timeWeight>-1.0</timeWeight>
        </arrival>
        <arrival publicID="smi:local/dacf38fc-acaa-4c62-b380-1e8d7bafae85">
          <pickID>smi:local/21691357</pickID>
          <phase>Pg</phase>
          <azimuth>122.46</azimuth>
          <distance>0.6559999999999999</distance>
          <timeResidual>-0.06</timeResidual>
          <timeWeight>-1.0</timeWeight>
        </arrival>
        <arrival publicID="smi:local/8b5114ec-1245-4643-a263-c536b79959b6">
          <pickID>smi:local/21691358</pickID>
          <phase>Pg</phase>
          <azimuth>344.72</azimuth>
          <distance>0.769</distance>
          <timeResidual>0.20600000000000002</timeResidual>
          <timeWeight>-1.0</timeWeight>
        </arrival>
        <arrival publicID="smi:local/250e6e2d-b12a-41f7-a2b5-2c3961d89e22">
          <pickID>smi:local/21691359</pickID>
          <phase>Pg</phase>
          <azimuth>77.65</azimuth>
          <distance>0.782</distance>
          <timeResidual>0.29100000000000004</timeResidual>
          <timeWeight>-1.0</timeWeight>
        </arrival>
        <arrival publicID="smi:local/23961144-d26d-466b-981b-7ba9b733df5e">
          <pickID>smi:local/21691360</pickID>
          <phase>Pg</phase>
          <azimuth>277.83</azimuth>
          <distance>0.81</distance>
          <timeResidual>0.392</timeResidual>
          <timeWeight>-1.0</timeWeight>
        </arrival>
        <arrival publicID="smi:local/b8615914-ba3a-4123-a5c9-16379748c3be">
          <pickID>smi:local/21691361</pickID>
          <phase>Pg</phase>
          <azimuth>112.63</azimuth>
          <distance>0.9279999999999999</distance>
          <timeResidual>-0.12300000000000001</timeResidual>
          <timeWeight>-1.0</timeWeight>
        </arrival>
        <arrival publicID="smi:local/f2d0e983-622b-4f9c-8a9b-d1e887bced41">
          <pickID>smi:local/21691362</pickID>
          <phase>Sg</phase>
          <azimuth>174.69</azimuth>
          <distance>0.55</distance>
          <timeResidual>0.11900000000000001</timeResidual>
          <timeWeight>-1.0</timeWeight>
        </arrival>
        <arrival publicID="smi:local/958213f1-0df2-4d85-8177-f5797eefa14c">
          <pickID>smi:local/21691363</pickID>
          <phase>Pg</phase>
          <azimuth>242.61</azimuth>
          <distance>1.0</distance>
          <timeResidual>0.059000000000000004</timeResidual>
          <timeWeight>-1.0</timeWeight>
        </arrival>
        <arrival publicID="smi:local/b6fcabf7-54ce-48a1-9943-037ea4eab014">
          <pickID>smi:local/21691364</pickID>
          <phase>Pg</phase>
          <azimuth>158.47</azimuth>
          <distance>1.123</distance>
          <timeResidual>-0.562</timeResidual>
          <timeWeight>-1.0</timeWeight>
        </arrival>
        <arrival publicID="smi:local/8082981e-2f65-4160-8077-23e9d3b8373c">
          <pickID>smi:local/21691365</pickID>
          <phase>Sg</phase>
          <azimuth>122.46</azimuth>
          <distance>0.6559999999999999</distance>
          <timeResidual>0.183</timeResidual>
          <timeWeight>-1.0</timeWeight>
        </arrival>
        <arrival publicID="smi:local/dfd7a893-c9ee-4e87-8fec-3641f30f9fd0">
          <pickID>smi:local/21691366</pickID>
          <phase>Pg</phase>
          <azimuth>49.29</azimuth>
          <distance>1.237</distance>
          <timeResidual>0.08800000000000001</timeResidual>
          <timeWeight>-1.0</timeWeight>
        </arrival>
        <arrival publicID="smi:local/e6e9ee18-33ae-4a9f-ab63-f50a256d0fc4">
          <pickID>smi:local/21691367</pickID>
          <phase>Pb</phase>
          <azimuth>311.17</azimuth>
          <distance>1.249</distance>
          <timeResidual>0.04</timeResidual>
          <timeWeight>-1.0</timeWeight>
        </arrival>
        <arrival publicID="smi:local/2a59c5dc-1e87-44d6-8f9c-e4a2d6c120dc">
          <pickID>smi:local/21691369</pickID>
          <phase>Sg</phase>
          <azimuth>77.65</azimuth>
          <distance>0.782</distance>
          <timeResidual>-0.062</timeResidual>
          <timeWeight>-1.0</timeWeight>
        </arrival>
        <arrival publicID="smi:local/6d2c7d9b-4f41-4e87-8fa9-e70e3926c3de">
          <pickID>smi:local/21691370</pickID>
          <phase>Pn</phase>
          <azimuth>301.6</azimuth>
          <distance>1.4140000000000001</distance>
          <timeResidual>-0.353</timeResidual>
          <timeWeight>-1.0</timeWeight>
        </arrival>
        <arrival publicID="smi:local/4d1df5c1-d68c-434f-a7a3-1e65bb282c3b">
          <pickID>smi:local/21691371</pickID>
          <phase>Pg</phase>
          <azimuth>275.66</azimuth>
          <distance>1.4180000000000001</distance>
          <timeResidual>-0.04</timeResidual>
          <timeWeight>-1.0</timeWeight>
        </arrival>
        <arrival publicID="smi:local/56129f8e-f70c-494f-a468-8d2e4f5fcc2f">
          <pickID>smi:local/21691372</pickID>
          <phase>pPn</phase>
          <azimuth>353.93</azimuth>
          <distance>1.43</distance>
          <timeResidual>-0.151</timeResidual>
          <timeWeight>-1.0</timeWeight>
        </arrival>
        <arrival publicID="smi:local/7810b48e-6999-4f7c-84b5-2a4aef21a09d">
          <pickID>smi:local/21691373</pickID>
          <phase>Pn</phase>
          <azimuth>135.5</azimuth>
          <distance>1.5019999999999998</distance>
          <timeResidual>-0.23800000000000002</timeResidual>
          <timeWeight>-1.0</timeWeight>
        </arrival>
        <arrival publicID="smi:local/09ff8ab8-de00-4859-8dcc-80db15910c7a">
          <pickID>smi:local/21691374</pickID>
          <phase>Pn</phase>
          <azimuth>213.18</azimuth>
          <distance>1.493</distance>
          <timeResidual>0.012</timeResidual>
          <timeWeight>-1.0</timeWeight>
        </arrival>
        <arrival publicID="smi:local/4ef404dc-858e-49ba-950e-7926f5750576">
          <pickID>smi:local/21691375</pickID>
          <phase>pPn</phase>
          <azimuth>11.65</azimuth>
          <distance>1.5090000000000001</distance>
          <timeResidual>-0.048</timeResidual>
          <timeWeight>-1.0</timeWeight>
        </arrival>
        <arrival publicID="smi:local/606e5664-e6ca-4541-9353-3b9eab0858aa">
          <pickID>smi:local/21691377</pickID>
          <phase>pPn</phase>
          <azimuth>107.8</azimuth>
          <distance>1.6119999999999999</distance>
          <timeResidual>-0.049</timeResidual>
          <timeWeight>-1.0</timeWeight>
        </arrival>
        <arrival publicID="smi:local/2b9ea5b4-026e-4e04-86e0-ce04c21dc98e">
          <pickID>smi:local/21691378</pickID>
          <phase>pPn</phase>
          <azimuth>253.86</azimuth>
          <distance>1.651</distance>
          <timeResidual>0.289</timeResidual>
          <timeWeight>-1.0</timeWeight>
        </arrival>
        <arrival publicID="smi:local/e7ad9ed0-6f06-417c-a2eb-acc532908db0">
          <pickID>smi:local/21691379</pickID>
          <phase>pPn</phase>
          <azimuth>325.89</azimuth>
          <distance>1.73</distance>
          <timeResidual>-0.11800000000000001</timeResidual>
          <timeWeight>-1.0</timeWeight>
        </arrival>
        <arrival publicID="smi:local/576bdfa4-3efa-4833-b706-da8fb41d0397">
          <pickID>smi:local/21691380</pickID>
          <phase>Sb</phase>
          <azimuth>112.63</azimuth>
          <distance>0.9279999999999999</distance>
          <timeResidual>-0.27699999999999997</timeResidual>
          <timeWeight>-1.0</timeWeight>
        </arrival>
        <arrival publicID="smi:local/75879ecf-2b52-4f69-8f12-dc236cb59108">
          <pickID>smi:local/21691381</pickID>
          <phase>pPn</phase>
          <azimuth>189.26</azimuth>
          <distance>1.765</distance>
          <timeResidual>0.517</timeResidual>
          <timeWeight>-1.0</timeWeight>
        </arrival>
        <arrival publicID="smi:local/d094d254-f28f-40c8-974a-174d7a47f58c">
          <pickID>smi:local/21691382</pickID>
          <phase>Pb</phase>
          <azimuth>230.54</azimuth>
          <distance>1.814</distance>
          <timeResidual>-0.35200000000000004</timeResidual>
          <timeWeight>-1.0</timeWeight>
        </arrival>
        <arrival publicID="smi:local/b9744593-21a1-402d-963a-b406ef72c0eb">
          <pickID>smi:local/21691383</pickID>
          <phase>pPn</phase>
          <azimuth>350.94</azimuth>
          <distance>1.874</distance>
          <timeResidual>0.316</timeResidual>
          <timeWeight>-1.0</timeWeight>
        </arrival>
        <arrival publicID="smi:local/e5ced2da-5d08-42a7-8627-9a9ea8139132">
          <pickID>smi:local/21691384</pickID>
          <phase>Pb</phase>
          <azimuth>169.33</azimuth>
          <distance>1.861</distance>
          <timeResidual>-0.706</timeResidual>
          <timeWeight>-1.0</timeWeight>
        </arrival>
        <arrival publicID="smi:local/5978a339-a504-4e23-9116-719b75737a61">
          <pickID>smi:local/21691385</pickID>
          <phase>pPn</phase>
          <azimuth>37.81</azimuth>
          <distance>1.926</distance>
          <timeResidual>0.19399999999999998</timeResidual>
          <timeWeight>-1.0</timeWeight>
        </arrival>
        <arrival publicID="smi:local/3cbf1e26-7da6-4219-8386-e7b854a2e4a1">
          <pickID>smi:local/21691386</pickID>
          <phase>Pn</phase>
          <azimuth>313.56</azimuth>
          <distance>2.035</distance>
          <timeResidual>-0.3</timeResidual>
          <timeWeight>-1.0</timeWeight>
        </arrival>
        <arrival publicID="smi:local/cdb57347-d0ae-4c51-a65a-d58eade85ec9">
          <pickID>smi:local/21691387</pickID>
          <phase>Pb</phase>
          <azimuth>126.71</azimuth>
          <distance>1.935</distance>
          <timeResidual>-0.667</timeResidual>
          <timeWeight>-1.0</timeWeight>
        </arrival>
        <arrival publicID="smi:local/f11b15cc-4b3e-48db-848e-50cfd36e4d61">
          <pickID>smi:local/21691388</pickID>
          <phase>Pb</phase>
          <azimuth>206.55</azimuth>
          <distance>1.994</distance>
          <timeResidual>-0.84</timeResidual>
          <timeWeight>-1.0</timeWeight>
        </arrival>
        <arrival publicID="smi:local/fe7dd0c5-ecda-4f9f-85f9-a14f5ee0d85f">
          <pickID>smi:local/21691389</pickID>
          <phase>Sg</phase>
          <azimuth>158.47</azimuth>
          <distance>1.123</distance>
          <timeResidual>-0.6990000000000001</timeResidual>
          <timeWeight>-1.0</timeWeight>
        </arrival>
        <arrival publicID="smi:local/3e62e814-b664-45bf-8088-db33058c6cd1">
          <pickID>smi:local/21691390</pickID>
          <phase>Pb</phase>
          <azimuth>150.92</azimuth>
          <distance>2.023</distance>
          <timeResidual>-0.84</timeResidual>
          <timeWeight>-1.0</timeWeight>
        </arrival>
        <arrival publicID="smi:local/6a3756ea-2070-4ceb-82f4-8cfe6ff0adaf">
          <pickID>smi:local/21691392</pickID>
          <phase>pPn</phase>
          <azimuth>270.62</azimuth>
          <distance>2.145</distance>
          <timeResidual>0.07200000000000001</timeResidual>
          <timeWeight>-1.0</timeWeight>
        </arrival>
        <arrival publicID="smi:local/663f10f7-3e40-4588-9ef8-c67361c83ae4">
          <pickID>smi:local/21691393</pickID>
          <phase>pPn</phase>
          <azimuth>335.64</azimuth>
          <distance>2.2</distance>
          <timeResidual>-0.09</timeResidual>
          <timeWeight>-1.0</timeWeight>
        </arrival>
        <arrival publicID="smi:local/5e242583-cdc0-4dc0-a65c-3392e3070061">
          <pickID>smi:local/21691394</pickID>
          <phase>pPn</phase>
          <azimuth>288.41</azimuth>
          <distance>2.211</distance>
          <timeResidual>0.006</timeResidual>
          <timeWeight>-1.0</timeWeight>
        </arrival>
        <arrival publicID="smi:local/1931f012-e781-4ef6-9a07-617952d51fc2">
          <pickID>smi:local/21691395</pickID>
          <phase>pPn</phase>
          <azimuth>257.58</azimuth>
          <distance>2.2159999999999997</distance>
          <timeResidual>0.8059999999999999</timeResidual>
          <timeWeight>-1.0</timeWeight>
        </arrival>
        <arrival publicID="smi:local/9bc052f3-ab3b-4ae1-b0c5-8798222fb336">
          <pickID>smi:local/21691397</pickID>
          <phase>pPn</phase>
          <azimuth>222.12</azimuth>
          <distance>2.2769999999999997</distance>
          <timeResidual>1.2</timeResidual>
          <timeWeight>-1.0</timeWeight>
        </arrival>
        <arrival publicID="smi:local/f290932d-5d7a-4a1a-a143-c5334f51a713">
          <pickID>smi:local/21691398</pickID>
          <phase>pPn</phase>
          <azimuth>135.67</azimuth>
          <distance>2.377</distance>
          <timeResidual>0.645</timeResidual>
          <timeWeight>-1.0</timeWeight>
        </arrival>
        <arrival publicID="smi:local/cc8c67fb-6640-442b-b157-3060719061f3">
          <pickID>smi:local/21691399</pickID>
          <phase>Pn</phase>
          <azimuth>322.46</azimuth>
          <distance>2.594</distance>
          <timeResidual>-0.124</timeResidual>
          <timeWeight>-1.0</timeWeight>
        </arrival>
        <arrival publicID="smi:local/712a9dde-1690-46bd-8c8e-d8c857c629c0">
          <pickID>smi:local/21691400</pickID>
          <phase>pPn</phase>
          <azimuth>172.02</azimuth>
          <distance>2.491</distance>
          <timeResidual>1.2209999999999999</timeResidual>
          <timeWeight>-1.0</timeWeight>
        </arrival>
        <arrival publicID="smi:local/9a11727f-90b5-4e6c-9008-b2beb5a33fa9">
          <pickID>smi:local/21691401</pickID>
          <phase>pPn</phase>
          <azimuth>184.95</azimuth>
          <distance>2.49</distance>
          <timeResidual>1.274</timeResidual>
          <timeWeight>-1.0</timeWeight>
        </arrival>
        <arrival publicID="smi:local/1fbdbf72-576a-43e7-a7b4-b8550e8892db">
          <pickID>smi:local/21691402</pickID>
          <phase>pPn</phase>
          <azimuth>239.75</azimuth>
          <distance>2.4859999999999998</distance>
          <timeResidual>1.354</timeResidual>
          <timeWeight>-1.0</timeWeight>
        </arrival>
        <arrival publicID="smi:local/f1b0dc93-7ae0-4b54-b6ba-bb2c45db9fa1">
          <pickID>smi:local/21691403</pickID>
          <phase>pPn</phase>
          <azimuth>356.75</azimuth>
          <distance>2.5540000000000003</distance>
          <timeResidual>1.264</timeResidual>
          <timeWeight>-1.0</timeWeight>
        </arrival>
        <arrival publicID="smi:local/00c1b235-7773-443a-b508-4aa63d1d38a0">
          <pickID>smi:local/21691404</pickID>
          <phase>pPn</phase>
          <azimuth>154.9</azimuth>
          <distance>2.562</distance>
          <timeResidual>1.255</timeResidual>
          <timeWeight>-1.0</timeWeight>
        </arrival>
        <arrival publicID="smi:local/57e0aef3-fc9b-47be-9049-186dc86d4c3a">
          <pickID>smi:local/21691405</pickID>
          <phase>pPn</phase>
          <azimuth>341.45</azimuth>
          <distance>2.6839999999999997</distance>
          <timeResidual>0.005</timeResidual>
          <timeWeight>-1.0</timeWeight>
        </arrival>
        <arrival publicID="smi:local/5e224f38-ae09-43bf-95a1-1af18f9b39a8">
          <pickID>smi:local/21691406</pickID>
          <phase>pPn</phase>
          <azimuth>200.54</azimuth>
          <distance>2.6069999999999998</distance>
          <timeResidual>1.153</timeResidual>
          <timeWeight>-1.0</timeWeight>
        </arrival>
        <arrival publicID="smi:local/5bc8b972-1c15-4271-a365-10959c5ad0e6">
          <pickID>smi:local/21691407</pickID>
          <phase>pPn</phase>
          <azimuth>302.47</azimuth>
          <distance>2.66</distance>
          <timeResidual>1.188</timeResidual>
          <timeWeight>-1.0</timeWeight>
        </arrival>
        <arrival publicID="smi:local/e13aa0b2-1970-4d6d-9f8d-f1fcb9345673">
          <pickID>smi:local/21691408</pickID>
          <phase>Sg</phase>
          <azimuth>275.66</azimuth>
          <distance>1.4180000000000001</distance>
          <timeResidual>-0.369</timeResidual>
          <timeWeight>-1.0</timeWeight>
        </arrival>
        <arrival publicID="smi:local/444dd849-86c5-4fb0-80ea-ca7c93b2e657">
          <pickID>smi:local/21691409</pickID>
          <phase>pPn</phase>
          <azimuth>287.72</azimuth>
          <distance>2.81</distance>
          <timeResidual>0.256</timeResidual>
          <timeWeight>-1.0</timeWeight>
        </arrival>
        <arrival publicID="smi:local/95b48157-15ce-43ba-8ad7-eb14caf66d3c">
          <pickID>smi:local/21691410</pickID>
          <phase>pPn</phase>
          <azimuth>211.68</azimuth>
          <distance>2.807</distance>
          <timeResidual>0.475</timeResidual>
          <timeWeight>-1.0</timeWeight>
        </arrival>
        <arrival publicID="smi:local/d880a631-e8fa-4ae7-ae91-bba551562c5b">
          <pickID>smi:local/21691411</pickID>
          <phase>pPn</phase>
          <azimuth>228.27</azimuth>
          <distance>2.786</distance>
          <timeResidual>1.122</timeResidual>
          <timeWeight>-1.0</timeWeight>
        </arrival>
        <arrival publicID="smi:local/66e2cd19-6ddc-4e8a-ae00-756a762cc698">
          <pickID>smi:local/21691412</pickID>
          <phase>Pn</phase>
          <azimuth>311.31</azimuth>
          <distance>2.926</distance>
